<?xml version="1.0" encoding="UTF-8"?>
<gpx version="1.1" creator="Walk-and-Talk make_gpx.py" xmlns="http://www.topografix.com/GPX/1/1">
  <wpt lat="32.6019586" lon="-115.4792454"><time>2026-01-01T00:00:00Z</time></wpt>
  <wpt lat="32.6019408" lon="-115.4792944"><time>2026-01-01T00:00:01Z</time></wpt>
  <wpt lat="32.6019230" lon="-115.4793434"><time>2026-01-01T00:00:02Z</time></wpt>
  <wpt lat="32.6019052" lon="-115.4793924"><time>2026-01-01T00:00:03Z</time></wpt>
  <wpt lat="32.6018874" lon="-115.4794415"><time>2026-01-01T00:00:04Z</time></wpt>
  <wpt lat="32.6018696" lon="-115.4794905"><time>2026-01-01T00:00:05Z</time></wpt>
  <wpt lat="32.6018518" lon="-115.4795395"><time>2026-01-01T00:00:06Z</time></wpt>
  <wpt lat="32.6018340" lon="-115.4795885"><time>2026-01-01T00:00:07Z</time></wpt>
  <wpt lat="32.6018162" lon="-115.4796375"><time>2026-01-01T00:00:08Z</time></wpt>
  <wpt lat="32.6017984" lon="-115.4796866"><time>2026-01-01T00:00:09Z</time></wpt>
  <wpt lat="32.6017806" lon="-115.4797356"><time>2026-01-01T00:00:10Z</time></wpt>
  <wpt lat="32.6017629" lon="-115.4797846"><time>2026-01-01T00:00:11Z</time></wpt>
  <wpt lat="32.6017451" lon="-115.4798336"><time>2026-01-01T00:00:12Z</time></wpt>
  <wpt lat="32.6017273" lon="-115.4798826"><time>2026-01-01T00:00:13Z</time></wpt>
  <wpt lat="32.6017095" lon="-115.4799317"><time>2026-01-01T00:00:14Z</time></wpt>
  <wpt lat="32.6016917" lon="-115.4799807"><time>2026-01-01T00:00:15Z</time></wpt>
  <wpt lat="32.6016739" lon="-115.4800297"><time>2026-01-01T00:00:16Z</time></wpt>
  <wpt lat="32.6016563" lon="-115.4800781"><time>2026-01-01T00:00:17Z</time></wpt>
  <wpt lat="32.6016388" lon="-115.4801265"><time>2026-01-01T00:00:18Z</time></wpt>
  <wpt lat="32.6016212" lon="-115.4801749"><time>2026-01-01T00:00:19Z</time></wpt>
  <wpt lat="32.6016036" lon="-115.4802234"><time>2026-01-01T00:00:20Z</time></wpt>
  <wpt lat="32.6015860" lon="-115.4802718"><time>2026-01-01T00:00:21Z</time></wpt>
  <wpt lat="32.6015685" lon="-115.4803202"><time>2026-01-01T00:00:22Z</time></wpt>
  <wpt lat="32.6015509" lon="-115.4803686"><time>2026-01-01T00:00:23Z</time></wpt>
  <wpt lat="32.6015333" lon="-115.4804170"><time>2026-01-01T00:00:24Z</time></wpt>
  <wpt lat="32.6015158" lon="-115.4804654"><time>2026-01-01T00:00:25Z</time></wpt>
  <wpt lat="32.6014982" lon="-115.4805138"><time>2026-01-01T00:00:26Z</time></wpt>
  <wpt lat="32.6014806" lon="-115.4805623"><time>2026-01-01T00:00:27Z</time></wpt>
  <wpt lat="32.6014630" lon="-115.4806107"><time>2026-01-01T00:00:28Z</time></wpt>
  <wpt lat="32.6014455" lon="-115.4806591"><time>2026-01-01T00:00:29Z</time></wpt>
  <wpt lat="32.6014279" lon="-115.4807075"><time>2026-01-01T00:00:30Z</time></wpt>
  <wpt lat="32.6014103" lon="-115.4807559"><time>2026-01-01T00:00:31Z</time></wpt>
  <wpt lat="32.6013928" lon="-115.4808043"><time>2026-01-01T00:00:32Z</time></wpt>
  <wpt lat="32.6013752" lon="-115.4808527"><time>2026-01-01T00:00:33Z</time></wpt>
  <wpt lat="32.6013576" lon="-115.4809012"><time>2026-01-01T00:00:34Z</time></wpt>
  <wpt lat="32.6013401" lon="-115.4809496"><time>2026-01-01T00:00:35Z</time></wpt>
  <wpt lat="32.6013225" lon="-115.4809980"><time>2026-01-01T00:00:36Z</time></wpt>
  <wpt lat="32.6013049" lon="-115.4810464"><time>2026-01-01T00:00:37Z</time></wpt>
  <wpt lat="32.6012873" lon="-115.4810948"><time>2026-01-01T00:00:38Z</time></wpt>
  <wpt lat="32.6012698" lon="-115.4811432"><time>2026-01-01T00:00:39Z</time></wpt>
  <wpt lat="32.6012522" lon="-115.4811916"><time>2026-01-01T00:00:40Z</time></wpt>
  <wpt lat="32.6012346" lon="-115.4812401"><time>2026-01-01T00:00:41Z</time></wpt>
  <wpt lat="32.6012171" lon="-115.4812885"><time>2026-01-01T00:00:42Z</time></wpt>
  <wpt lat="32.6011995" lon="-115.4813369"><time>2026-01-01T00:00:43Z</time></wpt>
  <wpt lat="32.6011819" lon="-115.4813853"><time>2026-01-01T00:00:44Z</time></wpt>
  <wpt lat="32.6011643" lon="-115.4814337"><time>2026-01-01T00:00:45Z</time></wpt>
  <wpt lat="32.6011468" lon="-115.4814821"><time>2026-01-01T00:00:46Z</time></wpt>
  <wpt lat="32.6011292" lon="-115.4815306"><time>2026-01-01T00:00:47Z</time></wpt>
  <wpt lat="32.6011116" lon="-115.4815790"><time>2026-01-01T00:00:48Z</time></wpt>
  <wpt lat="32.6010941" lon="-115.4816274"><time>2026-01-01T00:00:49Z</time></wpt>
  <wpt lat="32.6010765" lon="-115.4816758"><time>2026-01-01T00:00:50Z</time></wpt>
  <wpt lat="32.6010589" lon="-115.4817242"><time>2026-01-01T00:00:51Z</time></wpt>
  <wpt lat="32.6010413" lon="-115.4817726"><time>2026-01-01T00:00:52Z</time></wpt>
  <wpt lat="32.6010238" lon="-115.4818210"><time>2026-01-01T00:00:53Z</time></wpt>
  <wpt lat="32.6010062" lon="-115.4818695"><time>2026-01-01T00:00:54Z</time></wpt>
  <wpt lat="32.6009886" lon="-115.4819179"><time>2026-01-01T00:00:55Z</time></wpt>
  <wpt lat="32.6009711" lon="-115.4819663"><time>2026-01-01T00:00:56Z</time></wpt>
  <wpt lat="32.6009535" lon="-115.4820147"><time>2026-01-01T00:00:57Z</time></wpt>
  <wpt lat="32.6009359" lon="-115.4820631"><time>2026-01-01T00:00:58Z</time></wpt>
  <wpt lat="32.6009184" lon="-115.4821115"><time>2026-01-01T00:00:59Z</time></wpt>
  <wpt lat="32.6009008" lon="-115.4821599"><time>2026-01-01T00:01:00Z</time></wpt>
  <wpt lat="32.6008832" lon="-115.4822084"><time>2026-01-01T00:01:01Z</time></wpt>
  <wpt lat="32.6008656" lon="-115.4822568"><time>2026-01-01T00:01:02Z</time></wpt>
  <wpt lat="32.6008481" lon="-115.4823052"><time>2026-01-01T00:01:03Z</time></wpt>
  <wpt lat="32.6008305" lon="-115.4823536"><time>2026-01-01T00:01:04Z</time></wpt>
  <wpt lat="32.6008129" lon="-115.4824020"><time>2026-01-01T00:01:05Z</time></wpt>
  <wpt lat="32.6007954" lon="-115.4824504"><time>2026-01-01T00:01:06Z</time></wpt>
  <wpt lat="32.6007778" lon="-115.4824988"><time>2026-01-01T00:01:07Z</time></wpt>
  <wpt lat="32.6007602" lon="-115.4825473"><time>2026-01-01T00:01:08Z</time></wpt>
  <wpt lat="32.6007426" lon="-115.4825957"><time>2026-01-01T00:01:09Z</time></wpt>
  <wpt lat="32.6007251" lon="-115.4826441"><time>2026-01-01T00:01:10Z</time></wpt>
  <wpt lat="32.6007075" lon="-115.4826925"><time>2026-01-01T00:01:11Z</time></wpt>
  <wpt lat="32.6007158" lon="-115.4826405"><time>2026-01-01T00:01:12Z</time></wpt>
  <wpt lat="32.6007240" lon="-115.4825885"><time>2026-01-01T00:01:13Z</time></wpt>
  <wpt lat="32.6007323" lon="-115.4825365"><time>2026-01-01T00:01:14Z</time></wpt>
  <wpt lat="32.6007406" lon="-115.4824845"><time>2026-01-01T00:01:15Z</time></wpt>
  <wpt lat="32.6007488" lon="-115.4824325"><time>2026-01-01T00:01:16Z</time></wpt>
  <wpt lat="32.6007571" lon="-115.4823805"><time>2026-01-01T00:01:17Z</time></wpt>
  <wpt lat="32.6007654" lon="-115.4823285"><time>2026-01-01T00:01:18Z</time></wpt>
  <wpt lat="32.6007736" lon="-115.4822765"><time>2026-01-01T00:01:19Z</time></wpt>
  <wpt lat="32.6007819" lon="-115.4822245"><time>2026-01-01T00:01:20Z</time></wpt>
  <wpt lat="32.6007901" lon="-115.4821725"><time>2026-01-01T00:01:21Z</time></wpt>
  <wpt lat="32.6007984" lon="-115.4821205"><time>2026-01-01T00:01:22Z</time></wpt>
  <wpt lat="32.6008067" lon="-115.4820685"><time>2026-01-01T00:01:23Z</time></wpt>
  <wpt lat="32.6008149" lon="-115.4820165"><time>2026-01-01T00:01:24Z</time></wpt>
  <wpt lat="32.6008232" lon="-115.4819645"><time>2026-01-01T00:01:25Z</time></wpt>
  <wpt lat="32.6008315" lon="-115.4819125"><time>2026-01-01T00:01:26Z</time></wpt>
  <wpt lat="32.6008397" lon="-115.4818605"><time>2026-01-01T00:01:27Z</time></wpt>
  <wpt lat="32.6008480" lon="-115.4818085"><time>2026-01-01T00:01:28Z</time></wpt>
  <wpt lat="32.6008563" lon="-115.4817565"><time>2026-01-01T00:01:29Z</time></wpt>
  <wpt lat="32.6008645" lon="-115.4817045"><time>2026-01-01T00:01:30Z</time></wpt>
  <wpt lat="32.6008728" lon="-115.4816525"><time>2026-01-01T00:01:31Z</time></wpt>
  <wpt lat="32.6008811" lon="-115.4816005"><time>2026-01-01T00:01:32Z</time></wpt>
  <wpt lat="32.6008893" lon="-115.4815485"><time>2026-01-01T00:01:33Z</time></wpt>
  <wpt lat="32.6008976" lon="-115.4814965"><time>2026-01-01T00:01:34Z</time></wpt>
  <wpt lat="32.6009059" lon="-115.4814445"><time>2026-01-01T00:01:35Z</time></wpt>
  <wpt lat="32.6009141" lon="-115.4813925"><time>2026-01-01T00:01:36Z</time></wpt>
  <wpt lat="32.6009224" lon="-115.4813405"><time>2026-01-01T00:01:37Z</time></wpt>
  <wpt lat="32.6009306" lon="-115.4812885"><time>2026-01-01T00:01:38Z</time></wpt>
  <wpt lat="32.6009389" lon="-115.4812365"><time>2026-01-01T00:01:39Z</time></wpt>
  <wpt lat="32.6009472" lon="-115.4811845"><time>2026-01-01T00:01:40Z</time></wpt>
  <wpt lat="32.6009554" lon="-115.4811325"><time>2026-01-01T00:01:41Z</time></wpt>
  <wpt lat="32.6009637" lon="-115.4810805"><time>2026-01-01T00:01:42Z</time></wpt>
  <wpt lat="32.6009720" lon="-115.4810285"><time>2026-01-01T00:01:43Z</time></wpt>
  <wpt lat="32.6009802" lon="-115.4809765"><time>2026-01-01T00:01:44Z</time></wpt>
  <wpt lat="32.6009885" lon="-115.4809245"><time>2026-01-01T00:01:45Z</time></wpt>
  <wpt lat="32.6009968" lon="-115.4808725"><time>2026-01-01T00:01:46Z</time></wpt>
  <wpt lat="32.6010050" lon="-115.4808205"><time>2026-01-01T00:01:47Z</time></wpt>
  <wpt lat="32.6010133" lon="-115.4807685"><time>2026-01-01T00:01:48Z</time></wpt>
  <wpt lat="32.6010216" lon="-115.4807165"><time>2026-01-01T00:01:49Z</time></wpt>
  <wpt lat="32.6010298" lon="-115.4806645"><time>2026-01-01T00:01:50Z</time></wpt>
  <wpt lat="32.6010381" lon="-115.4806125"><time>2026-01-01T00:01:51Z</time></wpt>
  <wpt lat="32.6010463" lon="-115.4805605"><time>2026-01-01T00:01:52Z</time></wpt>
  <wpt lat="32.6010546" lon="-115.4805085"><time>2026-01-01T00:01:53Z</time></wpt>
  <wpt lat="32.6010629" lon="-115.4804565"><time>2026-01-01T00:01:54Z</time></wpt>
  <wpt lat="32.6010711" lon="-115.4804045"><time>2026-01-01T00:01:55Z</time></wpt>
  <wpt lat="32.6010794" lon="-115.4803525"><time>2026-01-01T00:01:56Z</time></wpt>
  <wpt lat="32.6010877" lon="-115.4803005"><time>2026-01-01T00:01:57Z</time></wpt>
  <wpt lat="32.6010959" lon="-115.4802485"><time>2026-01-01T00:01:58Z</time></wpt>
  <wpt lat="32.6011042" lon="-115.4801965"><time>2026-01-01T00:01:59Z</time></wpt>
  <wpt lat="32.6011125" lon="-115.4801445"><time>2026-01-01T00:02:00Z</time></wpt>
  <wpt lat="32.6011207" lon="-115.4800925"><time>2026-01-01T00:02:01Z</time></wpt>
  <wpt lat="32.6011290" lon="-115.4800405"><time>2026-01-01T00:02:02Z</time></wpt>
  <wpt lat="32.6011373" lon="-115.4799885"><time>2026-01-01T00:02:03Z</time></wpt>
  <wpt lat="32.6011455" lon="-115.4799365"><time>2026-01-01T00:02:04Z</time></wpt>
  <wpt lat="32.6011538" lon="-115.4798845"><time>2026-01-01T00:02:05Z</time></wpt>
  <wpt lat="32.6011621" lon="-115.4798325"><time>2026-01-01T00:02:06Z</time></wpt>
  <wpt lat="32.6011703" lon="-115.4797805"><time>2026-01-01T00:02:07Z</time></wpt>
  <wpt lat="32.6011786" lon="-115.4797284"><time>2026-01-01T00:02:08Z</time></wpt>
  <wpt lat="32.6011868" lon="-115.4796764"><time>2026-01-01T00:02:09Z</time></wpt>
  <wpt lat="32.6011951" lon="-115.4796244"><time>2026-01-01T00:02:10Z</time></wpt>
  <wpt lat="32.6012034" lon="-115.4795724"><time>2026-01-01T00:02:11Z</time></wpt>
  <wpt lat="32.6012116" lon="-115.4795204"><time>2026-01-01T00:02:12Z</time></wpt>
  <wpt lat="32.6012199" lon="-115.4794684"><time>2026-01-01T00:02:13Z</time></wpt>
  <wpt lat="32.6012282" lon="-115.4794164"><time>2026-01-01T00:02:14Z</time></wpt>
  <wpt lat="32.6012364" lon="-115.4793644"><time>2026-01-01T00:02:15Z</time></wpt>
  <wpt lat="32.6012447" lon="-115.4793124"><time>2026-01-01T00:02:16Z</time></wpt>
  <wpt lat="32.6012530" lon="-115.4792604"><time>2026-01-01T00:02:17Z</time></wpt>
  <wpt lat="32.6012612" lon="-115.4792084"><time>2026-01-01T00:02:18Z</time></wpt>
  <wpt lat="32.6012695" lon="-115.4791564"><time>2026-01-01T00:02:19Z</time></wpt>
  <wpt lat="32.6012778" lon="-115.4791044"><time>2026-01-01T00:02:20Z</time></wpt>
  <wpt lat="32.6012860" lon="-115.4790524"><time>2026-01-01T00:02:21Z</time></wpt>
  <wpt lat="32.6012943" lon="-115.4790004"><time>2026-01-01T00:02:22Z</time></wpt>
  <wpt lat="32.6013026" lon="-115.4789484"><time>2026-01-01T00:02:23Z</time></wpt>
  <wpt lat="32.6013108" lon="-115.4788964"><time>2026-01-01T00:02:24Z</time></wpt>
  <wpt lat="32.6013191" lon="-115.4788444"><time>2026-01-01T00:02:25Z</time></wpt>
  <wpt lat="32.6013273" lon="-115.4787924"><time>2026-01-01T00:02:26Z</time></wpt>
  <wpt lat="32.6013356" lon="-115.4787404"><time>2026-01-01T00:02:27Z</time></wpt>
  <wpt lat="32.6013439" lon="-115.4786884"><time>2026-01-01T00:02:28Z</time></wpt>
  <wpt lat="32.6013521" lon="-115.4786364"><time>2026-01-01T00:02:29Z</time></wpt>
  <wpt lat="32.6013604" lon="-115.4785844"><time>2026-01-01T00:02:30Z</time></wpt>
  <wpt lat="32.6013687" lon="-115.4785324"><time>2026-01-01T00:02:31Z</time></wpt>
  <wpt lat="32.6013769" lon="-115.4784804"><time>2026-01-01T00:02:32Z</time></wpt>
  <wpt lat="32.6013852" lon="-115.4784284"><time>2026-01-01T00:02:33Z</time></wpt>
  <wpt lat="32.6013935" lon="-115.4783764"><time>2026-01-01T00:02:34Z</time></wpt>
  <wpt lat="32.6014017" lon="-115.4783244"><time>2026-01-01T00:02:35Z</time></wpt>
  <wpt lat="32.6014100" lon="-115.4782724"><time>2026-01-01T00:02:36Z</time></wpt>
  <wpt lat="32.6014183" lon="-115.4782204"><time>2026-01-01T00:02:37Z</time></wpt>
  <wpt lat="32.6014265" lon="-115.4781684"><time>2026-01-01T00:02:38Z</time></wpt>
  <wpt lat="32.6014348" lon="-115.4781164"><time>2026-01-01T00:02:39Z</time></wpt>
  <wpt lat="32.6014430" lon="-115.4780644"><time>2026-01-01T00:02:40Z</time></wpt>
  <wpt lat="32.6014513" lon="-115.4780124"><time>2026-01-01T00:02:41Z</time></wpt>
  <wpt lat="32.6014596" lon="-115.4779604"><time>2026-01-01T00:02:42Z</time></wpt>
  <wpt lat="32.6014678" lon="-115.4779084"><time>2026-01-01T00:02:43Z</time></wpt>
  <wpt lat="32.6014761" lon="-115.4778564"><time>2026-01-01T00:02:44Z</time></wpt>
  <wpt lat="32.6014844" lon="-115.4778044"><time>2026-01-01T00:02:45Z</time></wpt>
  <wpt lat="32.6014926" lon="-115.4777524"><time>2026-01-01T00:02:46Z</time></wpt>
  <wpt lat="32.6015009" lon="-115.4777004"><time>2026-01-01T00:02:47Z</time></wpt>
  <wpt lat="32.6015092" lon="-115.4776484"><time>2026-01-01T00:02:48Z</time></wpt>
  <wpt lat="32.6015174" lon="-115.4775964"><time>2026-01-01T00:02:49Z</time></wpt>
  <wpt lat="32.6015257" lon="-115.4775444"><time>2026-01-01T00:02:50Z</time></wpt>
  <wpt lat="32.6015340" lon="-115.4774924"><time>2026-01-01T00:02:51Z</time></wpt>
  <wpt lat="32.6015422" lon="-115.4774404"><time>2026-01-01T00:02:52Z</time></wpt>
  <wpt lat="32.6015505" lon="-115.4773884"><time>2026-01-01T00:02:53Z</time></wpt>
  <wpt lat="32.6015588" lon="-115.4773364"><time>2026-01-01T00:02:54Z</time></wpt>
  <wpt lat="32.6015670" lon="-115.4772844"><time>2026-01-01T00:02:55Z</time></wpt>
  <wpt lat="32.6015753" lon="-115.4772324"><time>2026-01-01T00:02:56Z</time></wpt>
  <wpt lat="32.6015835" lon="-115.4771804"><time>2026-01-01T00:02:57Z</time></wpt>
  <wpt lat="32.6015918" lon="-115.4771284"><time>2026-01-01T00:02:58Z</time></wpt>
  <wpt lat="32.6016001" lon="-115.4770764"><time>2026-01-01T00:02:59Z</time></wpt>
  <wpt lat="32.6016083" lon="-115.4770244"><time>2026-01-01T00:03:00Z</time></wpt>
  <wpt lat="32.6016166" lon="-115.4769724"><time>2026-01-01T00:03:01Z</time></wpt>
  <wpt lat="32.6016249" lon="-115.4769204"><time>2026-01-01T00:03:02Z</time></wpt>
  <wpt lat="32.6016331" lon="-115.4768684"><time>2026-01-01T00:03:03Z</time></wpt>
  <wpt lat="32.6016414" lon="-115.4768164"><time>2026-01-01T00:03:04Z</time></wpt>
  <wpt lat="32.6016738" lon="-115.4767798"><time>2026-01-01T00:03:05Z</time></wpt>
  <wpt lat="32.6017062" lon="-115.4767432"><time>2026-01-01T00:03:06Z</time></wpt>
  <wpt lat="32.6017386" lon="-115.4767067"><time>2026-01-01T00:03:07Z</time></wpt>
  <wpt lat="32.6017711" lon="-115.4766701"><time>2026-01-01T00:03:08Z</time></wpt>
  <wpt lat="32.6018035" lon="-115.4766335"><time>2026-01-01T00:03:09Z</time></wpt>
  <wpt lat="32.6018359" lon="-115.4765969"><time>2026-01-01T00:03:10Z</time></wpt>
  <wpt lat="32.6018683" lon="-115.4765603"><time>2026-01-01T00:03:11Z</time></wpt>
  <wpt lat="32.6019007" lon="-115.4765237"><time>2026-01-01T00:03:12Z</time></wpt>
  <wpt lat="32.6019331" lon="-115.4764872"><time>2026-01-01T00:03:13Z</time></wpt>
  <wpt lat="32.6019656" lon="-115.4764506"><time>2026-01-01T00:03:14Z</time></wpt>
  <wpt lat="32.6019980" lon="-115.4764140"><time>2026-01-01T00:03:15Z</time></wpt>
  <wpt lat="32.6020304" lon="-115.4763774"><time>2026-01-01T00:03:16Z</time></wpt>
  <wpt lat="32.6020628" lon="-115.4763408"><time>2026-01-01T00:03:17Z</time></wpt>
  <wpt lat="32.6020952" lon="-115.4763042"><time>2026-01-01T00:03:18Z</time></wpt>
  <wpt lat="32.6021276" lon="-115.4762677"><time>2026-01-01T00:03:19Z</time></wpt>
  <wpt lat="32.6021601" lon="-115.4762311"><time>2026-01-01T00:03:20Z</time></wpt>
  <wpt lat="32.6021925" lon="-115.4761945"><time>2026-01-01T00:03:21Z</time></wpt>
  <wpt lat="32.6022249" lon="-115.4761579"><time>2026-01-01T00:03:22Z</time></wpt>
  <wpt lat="32.6022573" lon="-115.4761213"><time>2026-01-01T00:03:23Z</time></wpt>
  <wpt lat="32.6022897" lon="-115.4760847"><time>2026-01-01T00:03:24Z</time></wpt>
  <wpt lat="32.6023221" lon="-115.4760482"><time>2026-01-01T00:03:25Z</time></wpt>
  <wpt lat="32.6023546" lon="-115.4760116"><time>2026-01-01T00:03:26Z</time></wpt>
  <wpt lat="32.6023870" lon="-115.4759750"><time>2026-01-01T00:03:27Z</time></wpt>
  <wpt lat="32.6024194" lon="-115.4759384"><time>2026-01-01T00:03:28Z</time></wpt>
  <wpt lat="32.6024518" lon="-115.4759018"><time>2026-01-01T00:03:29Z</time></wpt>
  <wpt lat="32.6024842" lon="-115.4758653"><time>2026-01-01T00:03:30Z</time></wpt>
  <wpt lat="32.6025166" lon="-115.4758287"><time>2026-01-01T00:03:31Z</time></wpt>
  <wpt lat="32.6025490" lon="-115.4757921"><time>2026-01-01T00:03:32Z</time></wpt>
  <wpt lat="32.6025815" lon="-115.4757555"><time>2026-01-01T00:03:33Z</time></wpt>
  <wpt lat="32.6026139" lon="-115.4757189"><time>2026-01-01T00:03:34Z</time></wpt>
  <wpt lat="32.6026463" lon="-115.4756823"><time>2026-01-01T00:03:35Z</time></wpt>
  <wpt lat="32.6026787" lon="-115.4756458"><time>2026-01-01T00:03:36Z</time></wpt>
  <wpt lat="32.6027111" lon="-115.4756092"><time>2026-01-01T00:03:37Z</time></wpt>
  <wpt lat="32.6027435" lon="-115.4755726"><time>2026-01-01T00:03:38Z</time></wpt>
  <wpt lat="32.6027760" lon="-115.4755360"><time>2026-01-01T00:03:39Z</time></wpt>
  <wpt lat="32.6028084" lon="-115.4754994"><time>2026-01-01T00:03:40Z</time></wpt>
  <wpt lat="32.6028408" lon="-115.4754628"><time>2026-01-01T00:03:41Z</time></wpt>
  <wpt lat="32.6028732" lon="-115.4754263"><time>2026-01-01T00:03:42Z</time></wpt>
  <wpt lat="32.6029056" lon="-115.4753897"><time>2026-01-01T00:03:43Z</time></wpt>
  <wpt lat="32.6029380" lon="-115.4753531"><time>2026-01-01T00:03:44Z</time></wpt>
  <wpt lat="32.6029705" lon="-115.4753165"><time>2026-01-01T00:03:45Z</time></wpt>
  <wpt lat="32.6030029" lon="-115.4752799"><time>2026-01-01T00:03:46Z</time></wpt>
  <wpt lat="32.6030353" lon="-115.4752433"><time>2026-01-01T00:03:47Z</time></wpt>
  <wpt lat="32.6030677" lon="-115.4752068"><time>2026-01-01T00:03:48Z</time></wpt>
  <wpt lat="32.6031001" lon="-115.4751702"><time>2026-01-01T00:03:49Z</time></wpt>
  <wpt lat="32.6031325" lon="-115.4751336"><time>2026-01-01T00:03:50Z</time></wpt>
  <wpt lat="32.6031649" lon="-115.4750970"><time>2026-01-01T00:03:51Z</time></wpt>
  <wpt lat="32.6031974" lon="-115.4750604"><time>2026-01-01T00:03:52Z</time></wpt>
  <wpt lat="32.6032298" lon="-115.4750239"><time>2026-01-01T00:03:53Z</time></wpt>
  <wpt lat="32.6032622" lon="-115.4749873"><time>2026-01-01T00:03:54Z</time></wpt>
  <wpt lat="32.6032946" lon="-115.4749507"><time>2026-01-01T00:03:55Z</time></wpt>
  <wpt lat="32.6033270" lon="-115.4749141"><time>2026-01-01T00:03:56Z</time></wpt>
  <wpt lat="32.6033594" lon="-115.4748775"><time>2026-01-01T00:03:57Z</time></wpt>
  <wpt lat="32.6033919" lon="-115.4748409"><time>2026-01-01T00:03:58Z</time></wpt>
  <wpt lat="32.6034243" lon="-115.4748044"><time>2026-01-01T00:03:59Z</time></wpt>
  <wpt lat="32.6034567" lon="-115.4747678"><time>2026-01-01T00:04:00Z</time></wpt>
  <wpt lat="32.6034891" lon="-115.4747312"><time>2026-01-01T00:04:01Z</time></wpt>
  <wpt lat="32.6035215" lon="-115.4746946"><time>2026-01-01T00:04:02Z</time></wpt>
  <wpt lat="32.6035539" lon="-115.4746580"><time>2026-01-01T00:04:03Z</time></wpt>
  <wpt lat="32.6035864" lon="-115.4746214"><time>2026-01-01T00:04:04Z</time></wpt>
  <wpt lat="32.6036188" lon="-115.4745849"><time>2026-01-01T00:04:05Z</time></wpt>
  <wpt lat="32.6036512" lon="-115.4745483"><time>2026-01-01T00:04:06Z</time></wpt>
  <wpt lat="32.6036836" lon="-115.4745117"><time>2026-01-01T00:04:07Z</time></wpt>
  <wpt lat="32.6037160" lon="-115.4744751"><time>2026-01-01T00:04:08Z</time></wpt>
  <wpt lat="32.6037484" lon="-115.4744385"><time>2026-01-01T00:04:09Z</time></wpt>
  <wpt lat="32.6037809" lon="-115.4744019"><time>2026-01-01T00:04:10Z</time></wpt>
  <wpt lat="32.6038133" lon="-115.4743654"><time>2026-01-01T00:04:11Z</time></wpt>
  <wpt lat="32.6038457" lon="-115.4743288"><time>2026-01-01T00:04:12Z</time></wpt>
  <wpt lat="32.6038781" lon="-115.4742922"><time>2026-01-01T00:04:13Z</time></wpt>
  <wpt lat="32.6039130" lon="-115.4743256"><time>2026-01-01T00:04:14Z</time></wpt>
  <wpt lat="32.6039479" lon="-115.4743590"><time>2026-01-01T00:04:15Z</time></wpt>
  <wpt lat="32.6039828" lon="-115.4743924"><time>2026-01-01T00:04:16Z</time></wpt>
  <wpt lat="32.6040177" lon="-115.4744258"><time>2026-01-01T00:04:17Z</time></wpt>
  <wpt lat="32.6040527" lon="-115.4744592"><time>2026-01-01T00:04:18Z</time></wpt>
  <wpt lat="32.6040876" lon="-115.4744926"><time>2026-01-01T00:04:19Z</time></wpt>
  <wpt lat="32.6041225" lon="-115.4745260"><time>2026-01-01T00:04:20Z</time></wpt>
  <wpt lat="32.6041574" lon="-115.4745594"><time>2026-01-01T00:04:21Z</time></wpt>
  <wpt lat="32.6041923" lon="-115.4745928"><time>2026-01-01T00:04:22Z</time></wpt>
  <wpt lat="32.6042272" lon="-115.4746262"><time>2026-01-01T00:04:23Z</time></wpt>
  <wpt lat="32.6042621" lon="-115.4746596"><time>2026-01-01T00:04:24Z</time></wpt>
  <wpt lat="32.6042970" lon="-115.4746930"><time>2026-01-01T00:04:25Z</time></wpt>
  <wpt lat="32.6043320" lon="-115.4747264"><time>2026-01-01T00:04:26Z</time></wpt>
  <wpt lat="32.6043669" lon="-115.4747598"><time>2026-01-01T00:04:27Z</time></wpt>
  <wpt lat="32.6044018" lon="-115.4747932"><time>2026-01-01T00:04:28Z</time></wpt>
  <wpt lat="32.6044367" lon="-115.4748266"><time>2026-01-01T00:04:29Z</time></wpt>
  <wpt lat="32.6044716" lon="-115.4748600"><time>2026-01-01T00:04:30Z</time></wpt>
  <wpt lat="32.6045065" lon="-115.4748934"><time>2026-01-01T00:04:31Z</time></wpt>
  <wpt lat="32.6045414" lon="-115.4749268"><time>2026-01-01T00:04:32Z</time></wpt>
  <wpt lat="32.6045763" lon="-115.4749602"><time>2026-01-01T00:04:33Z</time></wpt>
  <wpt lat="32.6046113" lon="-115.4749936"><time>2026-01-01T00:04:34Z</time></wpt>
  <wpt lat="32.6046462" lon="-115.4750270"><time>2026-01-01T00:04:35Z</time></wpt>
  <wpt lat="32.6046811" lon="-115.4750605"><time>2026-01-01T00:04:36Z</time></wpt>
  <wpt lat="32.6047160" lon="-115.4750939"><time>2026-01-01T00:04:37Z</time></wpt>
  <wpt lat="32.6047509" lon="-115.4751273"><time>2026-01-01T00:04:38Z</time></wpt>
  <wpt lat="32.6047858" lon="-115.4751607"><time>2026-01-01T00:04:39Z</time></wpt>
  <wpt lat="32.6048207" lon="-115.4751941"><time>2026-01-01T00:04:40Z</time></wpt>
  <wpt lat="32.6048556" lon="-115.4752275"><time>2026-01-01T00:04:41Z</time></wpt>
  <wpt lat="32.6048905" lon="-115.4752609"><time>2026-01-01T00:04:42Z</time></wpt>
  <wpt lat="32.6049255" lon="-115.4752943"><time>2026-01-01T00:04:43Z</time></wpt>
  <wpt lat="32.6049604" lon="-115.4753277"><time>2026-01-01T00:04:44Z</time></wpt>
  <wpt lat="32.6049953" lon="-115.4753611"><time>2026-01-01T00:04:45Z</time></wpt>
  <wpt lat="32.6050302" lon="-115.4753945"><time>2026-01-01T00:04:46Z</time></wpt>
  <wpt lat="32.6050651" lon="-115.4754279"><time>2026-01-01T00:04:47Z</time></wpt>
  <wpt lat="32.6051000" lon="-115.4754613"><time>2026-01-01T00:04:48Z</time></wpt>
  <wpt lat="32.6051349" lon="-115.4754947"><time>2026-01-01T00:04:49Z</time></wpt>
  <wpt lat="32.6051698" lon="-115.4755281"><time>2026-01-01T00:04:50Z</time></wpt>
  <wpt lat="32.6052048" lon="-115.4755615"><time>2026-01-01T00:04:51Z</time></wpt>
  <wpt lat="32.6052397" lon="-115.4755949"><time>2026-01-01T00:04:52Z</time></wpt>
  <wpt lat="32.6052746" lon="-115.4756283"><time>2026-01-01T00:04:53Z</time></wpt>
  <wpt lat="32.6053095" lon="-115.4756617"><time>2026-01-01T00:04:54Z</time></wpt>
  <wpt lat="32.6053444" lon="-115.4756951"><time>2026-01-01T00:04:55Z</time></wpt>
  <wpt lat="32.6053793" lon="-115.4757285"><time>2026-01-01T00:04:56Z</time></wpt>
  <wpt lat="32.6054142" lon="-115.4757619"><time>2026-01-01T00:04:57Z</time></wpt>
  <wpt lat="32.6054491" lon="-115.4757953"><time>2026-01-01T00:04:58Z</time></wpt>
  <wpt lat="32.6054841" lon="-115.4758287"><time>2026-01-01T00:04:59Z</time></wpt>
  <wpt lat="32.6055190" lon="-115.4758621"><time>2026-01-01T00:05:00Z</time></wpt>
  <wpt lat="32.6055539" lon="-115.4758955"><time>2026-01-01T00:05:01Z</time></wpt>
  <wpt lat="32.6055888" lon="-115.4759289"><time>2026-01-01T00:05:02Z</time></wpt>
  <wpt lat="32.6056237" lon="-115.4759623"><time>2026-01-01T00:05:03Z</time></wpt>
  <wpt lat="32.6056586" lon="-115.4759957"><time>2026-01-01T00:05:04Z</time></wpt>
  <wpt lat="32.6056935" lon="-115.4760291"><time>2026-01-01T00:05:05Z</time></wpt>
  <wpt lat="32.6057284" lon="-115.4760625"><time>2026-01-01T00:05:06Z</time></wpt>
  <wpt lat="32.6057633" lon="-115.4760959"><time>2026-01-01T00:05:07Z</time></wpt>
  <wpt lat="32.6057983" lon="-115.4761293"><time>2026-01-01T00:05:08Z</time></wpt>
  <wpt lat="32.6058332" lon="-115.4761627"><time>2026-01-01T00:05:09Z</time></wpt>
  <wpt lat="32.6058681" lon="-115.4761961"><time>2026-01-01T00:05:10Z</time></wpt>
  <wpt lat="32.6059030" lon="-115.4762295"><time>2026-01-01T00:05:11Z</time></wpt>
  <wpt lat="32.6059379" lon="-115.4762629"><time>2026-01-01T00:05:12Z</time></wpt>
  <wpt lat="32.6059728" lon="-115.4762963"><time>2026-01-01T00:05:13Z</time></wpt>
  <wpt lat="32.6060077" lon="-115.4763297"><time>2026-01-01T00:05:14Z</time></wpt>
  <wpt lat="32.6060426" lon="-115.4763631"><time>2026-01-01T00:05:15Z</time></wpt>
  <wpt lat="32.6060776" lon="-115.4763965"><time>2026-01-01T00:05:16Z</time></wpt>
  <wpt lat="32.6061125" lon="-115.4764299"><time>2026-01-01T00:05:17Z</time></wpt>
  <wpt lat="32.6061474" lon="-115.4764633"><time>2026-01-01T00:05:18Z</time></wpt>
  <wpt lat="32.6061823" lon="-115.4764967"><time>2026-01-01T00:05:19Z</time></wpt>
  <wpt lat="32.6062172" lon="-115.4765301"><time>2026-01-01T00:05:20Z</time></wpt>
  <wpt lat="32.6062521" lon="-115.4765635"><time>2026-01-01T00:05:21Z</time></wpt>
  <wpt lat="32.6062870" lon="-115.4765969"><time>2026-01-01T00:05:22Z</time></wpt>
  <wpt lat="32.6063219" lon="-115.4766304"><time>2026-01-01T00:05:23Z</time></wpt>
  <wpt lat="32.6063568" lon="-115.4766638"><time>2026-01-01T00:05:24Z</time></wpt>
  <wpt lat="32.6063918" lon="-115.4766972"><time>2026-01-01T00:05:25Z</time></wpt>
  <wpt lat="32.6064267" lon="-115.4767306"><time>2026-01-01T00:05:26Z</time></wpt>
  <wpt lat="32.6064616" lon="-115.4767640"><time>2026-01-01T00:05:27Z</time></wpt>
  <wpt lat="32.6064965" lon="-115.4767974"><time>2026-01-01T00:05:28Z</time></wpt>
  <wpt lat="32.6065314" lon="-115.4768308"><time>2026-01-01T00:05:29Z</time></wpt>
  <wpt lat="32.6065663" lon="-115.4768642"><time>2026-01-01T00:05:30Z</time></wpt>
  <wpt lat="32.6066012" lon="-115.4768976"><time>2026-01-01T00:05:31Z</time></wpt>
  <wpt lat="32.6066361" lon="-115.4769310"><time>2026-01-01T00:05:32Z</time></wpt>
  <wpt lat="32.6066711" lon="-115.4769644"><time>2026-01-01T00:05:33Z</time></wpt>
  <wpt lat="32.6067060" lon="-115.4769978"><time>2026-01-01T00:05:34Z</time></wpt>
  <wpt lat="32.6067409" lon="-115.4770312"><time>2026-01-01T00:05:35Z</time></wpt>
  <wpt lat="32.6067758" lon="-115.4770646"><time>2026-01-01T00:05:36Z</time></wpt>
  <wpt lat="32.6068107" lon="-115.4770980"><time>2026-01-01T00:05:37Z</time></wpt>
  <wpt lat="32.6068456" lon="-115.4771314"><time>2026-01-01T00:05:38Z</time></wpt>
  <wpt lat="32.6068805" lon="-115.4771648"><time>2026-01-01T00:05:39Z</time></wpt>
  <wpt lat="32.6069154" lon="-115.4771982"><time>2026-01-01T00:05:40Z</time></wpt>
  <wpt lat="32.6069504" lon="-115.4772316"><time>2026-01-01T00:05:41Z</time></wpt>
  <wpt lat="32.6069853" lon="-115.4772650"><time>2026-01-01T00:05:42Z</time></wpt>
  <wpt lat="32.6070202" lon="-115.4772984"><time>2026-01-01T00:05:43Z</time></wpt>
  <wpt lat="32.6070551" lon="-115.4773318"><time>2026-01-01T00:05:44Z</time></wpt>
  <wpt lat="32.6070900" lon="-115.4773652"><time>2026-01-01T00:05:45Z</time></wpt>
  <wpt lat="32.6071250" lon="-115.4773987"><time>2026-01-01T00:05:46Z</time></wpt>
  <wpt lat="32.6071600" lon="-115.4774322"><time>2026-01-01T00:05:47Z</time></wpt>
  <wpt lat="32.6071950" lon="-115.4774657"><time>2026-01-01T00:05:48Z</time></wpt>
  <wpt lat="32.6072300" lon="-115.4774992"><time>2026-01-01T00:05:49Z</time></wpt>
  <wpt lat="32.6072651" lon="-115.4775327"><time>2026-01-01T00:05:50Z</time></wpt>
  <wpt lat="32.6073001" lon="-115.4775662"><time>2026-01-01T00:05:51Z</time></wpt>
  <wpt lat="32.6073351" lon="-115.4775997"><time>2026-01-01T00:05:52Z</time></wpt>
  <wpt lat="32.6073701" lon="-115.4776332"><time>2026-01-01T00:05:53Z</time></wpt>
  <wpt lat="32.6074051" lon="-115.4776667"><time>2026-01-01T00:05:54Z</time></wpt>
  <wpt lat="32.6074401" lon="-115.4777002"><time>2026-01-01T00:05:55Z</time></wpt>
  <wpt lat="32.6074751" lon="-115.4777337"><time>2026-01-01T00:05:56Z</time></wpt>
  <wpt lat="32.6075101" lon="-115.4777672"><time>2026-01-01T00:05:57Z</time></wpt>
  <wpt lat="32.6075451" lon="-115.4778007"><time>2026-01-01T00:05:58Z</time></wpt>
  <wpt lat="32.6075801" lon="-115.4778341"><time>2026-01-01T00:05:59Z</time></wpt>
  <wpt lat="32.6076152" lon="-115.4778676"><time>2026-01-01T00:06:00Z</time></wpt>
  <wpt lat="32.6076502" lon="-115.4779011"><time>2026-01-01T00:06:01Z</time></wpt>
</gpx>
