<?xml version="1.0" encoding="UTF-8"?>
<gpx version="1.1" creator="Walk-and-Talk make_gpx.py" xmlns="http://www.topografix.com/GPX/1/1">
  <wpt lat="32.6614396" lon="-115.4904722"><time>2026-01-01T00:00:00Z</time></wpt>
  <wpt lat="32.6614580" lon="-115.4904269"><time>2026-01-01T00:00:01Z</time></wpt>
  <wpt lat="32.6614765" lon="-115.4903817"><time>2026-01-01T00:00:02Z</time></wpt>
  <wpt lat="32.6614949" lon="-115.4903364"><time>2026-01-01T00:00:03Z</time></wpt>
  <wpt lat="32.6615133" lon="-115.4902912"><time>2026-01-01T00:00:04Z</time></wpt>
  <wpt lat="32.6615318" lon="-115.4902459"><time>2026-01-01T00:00:05Z</time></wpt>
  <wpt lat="32.6615502" lon="-115.4902007"><time>2026-01-01T00:00:06Z</time></wpt>
  <wpt lat="32.6615686" lon="-115.4901554"><time>2026-01-01T00:00:07Z</time></wpt>
  <wpt lat="32.6615871" lon="-115.4901102"><time>2026-01-01T00:00:08Z</time></wpt>
  <wpt lat="32.6616055" lon="-115.4900649"><time>2026-01-01T00:00:09Z</time></wpt>
  <wpt lat="32.6616240" lon="-115.4900197"><time>2026-01-01T00:00:10Z</time></wpt>
  <wpt lat="32.6616424" lon="-115.4899744"><time>2026-01-01T00:00:11Z</time></wpt>
  <wpt lat="32.6616608" lon="-115.4899292"><time>2026-01-01T00:00:12Z</time></wpt>
  <wpt lat="32.6616793" lon="-115.4898839"><time>2026-01-01T00:00:13Z</time></wpt>
  <wpt lat="32.6616977" lon="-115.4898387"><time>2026-01-01T00:00:14Z</time></wpt>
  <wpt lat="32.6617161" lon="-115.4897934"><time>2026-01-01T00:00:15Z</time></wpt>
  <wpt lat="32.6617346" lon="-115.4897482"><time>2026-01-01T00:00:16Z</time></wpt>
  <wpt lat="32.6617530" lon="-115.4897029"><time>2026-01-01T00:00:17Z</time></wpt>
  <wpt lat="32.6617722" lon="-115.4896558"><time>2026-01-01T00:00:18Z</time></wpt>
  <wpt lat="32.6617913" lon="-115.4896088"><time>2026-01-01T00:00:19Z</time></wpt>
  <wpt lat="32.6618105" lon="-115.4895617"><time>2026-01-01T00:00:20Z</time></wpt>
  <wpt lat="32.6618297" lon="-115.4895146"><time>2026-01-01T00:00:21Z</time></wpt>
  <wpt lat="32.6618489" lon="-115.4894676"><time>2026-01-01T00:00:22Z</time></wpt>
  <wpt lat="32.6618680" lon="-115.4894205"><time>2026-01-01T00:00:23Z</time></wpt>
  <wpt lat="32.6618872" lon="-115.4893734"><time>2026-01-01T00:00:24Z</time></wpt>
  <wpt lat="32.6619064" lon="-115.4893264"><time>2026-01-01T00:00:25Z</time></wpt>
  <wpt lat="32.6619256" lon="-115.4892793"><time>2026-01-01T00:00:26Z</time></wpt>
  <wpt lat="32.6619447" lon="-115.4892323"><time>2026-01-01T00:00:27Z</time></wpt>
  <wpt lat="32.6619639" lon="-115.4891852"><time>2026-01-01T00:00:28Z</time></wpt>
  <wpt lat="32.6619831" lon="-115.4891381"><time>2026-01-01T00:00:29Z</time></wpt>
  <wpt lat="32.6620023" lon="-115.4890911"><time>2026-01-01T00:00:30Z</time></wpt>
  <wpt lat="32.6620214" lon="-115.4890440"><time>2026-01-01T00:00:31Z</time></wpt>
  <wpt lat="32.6620406" lon="-115.4889969"><time>2026-01-01T00:00:32Z</time></wpt>
  <wpt lat="32.6620598" lon="-115.4889499"><time>2026-01-01T00:00:33Z</time></wpt>
  <wpt lat="32.6620790" lon="-115.4889028"><time>2026-01-01T00:00:34Z</time></wpt>
  <wpt lat="32.6620981" lon="-115.4888557"><time>2026-01-01T00:00:35Z</time></wpt>
  <wpt lat="32.6621173" lon="-115.4888087"><time>2026-01-01T00:00:36Z</time></wpt>
  <wpt lat="32.6621365" lon="-115.4887616"><time>2026-01-01T00:00:37Z</time></wpt>
  <wpt lat="32.6621557" lon="-115.4887145"><time>2026-01-01T00:00:38Z</time></wpt>
  <wpt lat="32.6621748" lon="-115.4886675"><time>2026-01-01T00:00:39Z</time></wpt>
  <wpt lat="32.6621940" lon="-115.4886204"><time>2026-01-01T00:00:40Z</time></wpt>
  <wpt lat="32.6622132" lon="-115.4885734"><time>2026-01-01T00:00:41Z</time></wpt>
  <wpt lat="32.6622324" lon="-115.4885263"><time>2026-01-01T00:00:42Z</time></wpt>
  <wpt lat="32.6622515" lon="-115.4884792"><time>2026-01-01T00:00:43Z</time></wpt>
  <wpt lat="32.6622707" lon="-115.4884322"><time>2026-01-01T00:00:44Z</time></wpt>
  <wpt lat="32.6622899" lon="-115.4883851"><time>2026-01-01T00:00:45Z</time></wpt>
  <wpt lat="32.6623091" lon="-115.4883380"><time>2026-01-01T00:00:46Z</time></wpt>
  <wpt lat="32.6623282" lon="-115.4882910"><time>2026-01-01T00:00:47Z</time></wpt>
  <wpt lat="32.6623474" lon="-115.4882439"><time>2026-01-01T00:00:48Z</time></wpt>
  <wpt lat="32.6623869" lon="-115.4882186"><time>2026-01-01T00:00:49Z</time></wpt>
  <wpt lat="32.6624263" lon="-115.4881933"><time>2026-01-01T00:00:50Z</time></wpt>
  <wpt lat="32.6624658" lon="-115.4881680"><time>2026-01-01T00:00:51Z</time></wpt>
  <wpt lat="32.6625052" lon="-115.4881427"><time>2026-01-01T00:00:52Z</time></wpt>
  <wpt lat="32.6625447" lon="-115.4881175"><time>2026-01-01T00:00:53Z</time></wpt>
  <wpt lat="32.6625841" lon="-115.4880922"><time>2026-01-01T00:00:54Z</time></wpt>
  <wpt lat="32.6626236" lon="-115.4880669"><time>2026-01-01T00:00:55Z</time></wpt>
  <wpt lat="32.6626630" lon="-115.4880416"><time>2026-01-01T00:00:56Z</time></wpt>
  <wpt lat="32.6627025" lon="-115.4880163"><time>2026-01-01T00:00:57Z</time></wpt>
  <wpt lat="32.6627420" lon="-115.4879910"><time>2026-01-01T00:00:58Z</time></wpt>
  <wpt lat="32.6627814" lon="-115.4879657"><time>2026-01-01T00:00:59Z</time></wpt>
  <wpt lat="32.6628209" lon="-115.4879404"><time>2026-01-01T00:01:00Z</time></wpt>
  <wpt lat="32.6628603" lon="-115.4879151"><time>2026-01-01T00:01:01Z</time></wpt>
  <wpt lat="32.6628998" lon="-115.4878899"><time>2026-01-01T00:01:02Z</time></wpt>
  <wpt lat="32.6629392" lon="-115.4878646"><time>2026-01-01T00:01:03Z</time></wpt>
  <wpt lat="32.6629787" lon="-115.4878393"><time>2026-01-01T00:01:04Z</time></wpt>
  <wpt lat="32.6630181" lon="-115.4878140"><time>2026-01-01T00:01:05Z</time></wpt>
  <wpt lat="32.6630576" lon="-115.4877887"><time>2026-01-01T00:01:06Z</time></wpt>
  <wpt lat="32.6630893" lon="-115.4878242"><time>2026-01-01T00:01:07Z</time></wpt>
  <wpt lat="32.6631209" lon="-115.4878597"><time>2026-01-01T00:01:08Z</time></wpt>
  <wpt lat="32.6631526" lon="-115.4878952"><time>2026-01-01T00:01:09Z</time></wpt>
  <wpt lat="32.6631842" lon="-115.4879306"><time>2026-01-01T00:01:10Z</time></wpt>
  <wpt lat="32.6632159" lon="-115.4879661"><time>2026-01-01T00:01:11Z</time></wpt>
  <wpt lat="32.6632475" lon="-115.4880016"><time>2026-01-01T00:01:12Z</time></wpt>
  <wpt lat="32.6632792" lon="-115.4880371"><time>2026-01-01T00:01:13Z</time></wpt>
  <wpt lat="32.6633108" lon="-115.4880726"><time>2026-01-01T00:01:14Z</time></wpt>
  <wpt lat="32.6633425" lon="-115.4881081"><time>2026-01-01T00:01:15Z</time></wpt>
  <wpt lat="32.6633741" lon="-115.4881436"><time>2026-01-01T00:01:16Z</time></wpt>
  <wpt lat="32.6634058" lon="-115.4881790"><time>2026-01-01T00:01:17Z</time></wpt>
  <wpt lat="32.6634374" lon="-115.4882145"><time>2026-01-01T00:01:18Z</time></wpt>
  <wpt lat="32.6634691" lon="-115.4882500"><time>2026-01-01T00:01:19Z</time></wpt>
  <wpt lat="32.6635007" lon="-115.4882855"><time>2026-01-01T00:01:20Z</time></wpt>
  <wpt lat="32.6635324" lon="-115.4883210"><time>2026-01-01T00:01:21Z</time></wpt>
  <wpt lat="32.6635640" lon="-115.4883565"><time>2026-01-01T00:01:22Z</time></wpt>
  <wpt lat="32.6635957" lon="-115.4883919"><time>2026-01-01T00:01:23Z</time></wpt>
  <wpt lat="32.6636273" lon="-115.4884274"><time>2026-01-01T00:01:24Z</time></wpt>
  <wpt lat="32.6636590" lon="-115.4884629"><time>2026-01-01T00:01:25Z</time></wpt>
  <wpt lat="32.6636906" lon="-115.4884984"><time>2026-01-01T00:01:26Z</time></wpt>
  <wpt lat="32.6637223" lon="-115.4885339"><time>2026-01-01T00:01:27Z</time></wpt>
  <wpt lat="32.6637539" lon="-115.4885694"><time>2026-01-01T00:01:28Z</time></wpt>
  <wpt lat="32.6637856" lon="-115.4886049"><time>2026-01-01T00:01:29Z</time></wpt>
  <wpt lat="32.6638172" lon="-115.4886403"><time>2026-01-01T00:01:30Z</time></wpt>
  <wpt lat="32.6638489" lon="-115.4886758"><time>2026-01-01T00:01:31Z</time></wpt>
  <wpt lat="32.6638805" lon="-115.4887113"><time>2026-01-01T00:01:32Z</time></wpt>
  <wpt lat="32.6639122" lon="-115.4887468"><time>2026-01-01T00:01:33Z</time></wpt>
  <wpt lat="32.6638796" lon="-115.4887830"><time>2026-01-01T00:01:34Z</time></wpt>
  <wpt lat="32.6638470" lon="-115.4888191"><time>2026-01-01T00:01:35Z</time></wpt>
  <wpt lat="32.6638143" lon="-115.4888553"><time>2026-01-01T00:01:36Z</time></wpt>
  <wpt lat="32.6637817" lon="-115.4888914"><time>2026-01-01T00:01:37Z</time></wpt>
  <wpt lat="32.6637491" lon="-115.4889276"><time>2026-01-01T00:01:38Z</time></wpt>
  <wpt lat="32.6637165" lon="-115.4889637"><time>2026-01-01T00:01:39Z</time></wpt>
  <wpt lat="32.6636839" lon="-115.4889999"><time>2026-01-01T00:01:40Z</time></wpt>
  <wpt lat="32.6636512" lon="-115.4890360"><time>2026-01-01T00:01:41Z</time></wpt>
  <wpt lat="32.6636186" lon="-115.4890722"><time>2026-01-01T00:01:42Z</time></wpt>
  <wpt lat="32.6635860" lon="-115.4891083"><time>2026-01-01T00:01:43Z</time></wpt>
  <wpt lat="32.6635534" lon="-115.4891445"><time>2026-01-01T00:01:44Z</time></wpt>
  <wpt lat="32.6635208" lon="-115.4891806"><time>2026-01-01T00:01:45Z</time></wpt>
  <wpt lat="32.6634882" lon="-115.4892168"><time>2026-01-01T00:01:46Z</time></wpt>
  <wpt lat="32.6634555" lon="-115.4892529"><time>2026-01-01T00:01:47Z</time></wpt>
  <wpt lat="32.6634229" lon="-115.4892891"><time>2026-01-01T00:01:48Z</time></wpt>
  <wpt lat="32.6633903" lon="-115.4893252"><time>2026-01-01T00:01:49Z</time></wpt>
  <wpt lat="32.6633577" lon="-115.4893614"><time>2026-01-01T00:01:50Z</time></wpt>
  <wpt lat="32.6633251" lon="-115.4893975"><time>2026-01-01T00:01:51Z</time></wpt>
  <wpt lat="32.6632924" lon="-115.4894337"><time>2026-01-01T00:01:52Z</time></wpt>
  <wpt lat="32.6632598" lon="-115.4894698"><time>2026-01-01T00:01:53Z</time></wpt>
  <wpt lat="32.6632272" lon="-115.4895060"><time>2026-01-01T00:01:54Z</time></wpt>
  <wpt lat="32.6632131" lon="-115.4895561"><time>2026-01-01T00:01:55Z</time></wpt>
  <wpt lat="32.6631991" lon="-115.4896063"><time>2026-01-01T00:01:56Z</time></wpt>
  <wpt lat="32.6631850" lon="-115.4896564"><time>2026-01-01T00:01:57Z</time></wpt>
  <wpt lat="32.6631709" lon="-115.4897065"><time>2026-01-01T00:01:58Z</time></wpt>
  <wpt lat="32.6631568" lon="-115.4897566"><time>2026-01-01T00:01:59Z</time></wpt>
  <wpt lat="32.6631427" lon="-115.4898068"><time>2026-01-01T00:02:00Z</time></wpt>
  <wpt lat="32.6631287" lon="-115.4898569"><time>2026-01-01T00:02:01Z</time></wpt>
  <wpt lat="32.6631146" lon="-115.4899070"><time>2026-01-01T00:02:02Z</time></wpt>
  <wpt lat="32.6631005" lon="-115.4899572"><time>2026-01-01T00:02:03Z</time></wpt>
  <wpt lat="32.6630865" lon="-115.4900073"><time>2026-01-01T00:02:04Z</time></wpt>
  <wpt lat="32.6630724" lon="-115.4900574"><time>2026-01-01T00:02:05Z</time></wpt>
  <wpt lat="32.6630583" lon="-115.4901075"><time>2026-01-01T00:02:06Z</time></wpt>
  <wpt lat="32.6630442" lon="-115.4901577"><time>2026-01-01T00:02:07Z</time></wpt>
  <wpt lat="32.6630302" lon="-115.4902078"><time>2026-01-01T00:02:08Z</time></wpt>
  <wpt lat="32.6630161" lon="-115.4902579"><time>2026-01-01T00:02:09Z</time></wpt>
  <wpt lat="32.6630020" lon="-115.4903081"><time>2026-01-01T00:02:10Z</time></wpt>
  <wpt lat="32.6629879" lon="-115.4903582"><time>2026-01-01T00:02:11Z</time></wpt>
  <wpt lat="32.6629739" lon="-115.4904083"><time>2026-01-01T00:02:12Z</time></wpt>
  <wpt lat="32.6629598" lon="-115.4904584"><time>2026-01-01T00:02:13Z</time></wpt>
  <wpt lat="32.6629457" lon="-115.4905086"><time>2026-01-01T00:02:14Z</time></wpt>
  <wpt lat="32.6629316" lon="-115.4905587"><time>2026-01-01T00:02:15Z</time></wpt>
  <wpt lat="32.6629176" lon="-115.4906088"><time>2026-01-01T00:02:16Z</time></wpt>
  <wpt lat="32.6629035" lon="-115.4906589"><time>2026-01-01T00:02:17Z</time></wpt>
  <wpt lat="32.6628894" lon="-115.4907091"><time>2026-01-01T00:02:18Z</time></wpt>
  <wpt lat="32.6628753" lon="-115.4907592"><time>2026-01-01T00:02:19Z</time></wpt>
  <wpt lat="32.6628613" lon="-115.4908093"><time>2026-01-01T00:02:20Z</time></wpt>
  <wpt lat="32.6628472" lon="-115.4908595"><time>2026-01-01T00:02:21Z</time></wpt>
  <wpt lat="32.6628331" lon="-115.4909096"><time>2026-01-01T00:02:22Z</time></wpt>
  <wpt lat="32.6628190" lon="-115.4909597"><time>2026-01-01T00:02:23Z</time></wpt>
  <wpt lat="32.6628050" lon="-115.4910098"><time>2026-01-01T00:02:24Z</time></wpt>
  <wpt lat="32.6627909" lon="-115.4910600"><time>2026-01-01T00:02:25Z</time></wpt>
  <wpt lat="32.6627768" lon="-115.4911101"><time>2026-01-01T00:02:26Z</time></wpt>
  <wpt lat="32.6627420" lon="-115.4911409"><time>2026-01-01T00:02:27Z</time></wpt>
  <wpt lat="32.6627071" lon="-115.4911717"><time>2026-01-01T00:02:28Z</time></wpt>
  <wpt lat="32.6626723" lon="-115.4912025"><time>2026-01-01T00:02:29Z</time></wpt>
  <wpt lat="32.6626374" lon="-115.4912333"><time>2026-01-01T00:02:30Z</time></wpt>
  <wpt lat="32.6626026" lon="-115.4912640"><time>2026-01-01T00:02:31Z</time></wpt>
  <wpt lat="32.6625677" lon="-115.4912948"><time>2026-01-01T00:02:32Z</time></wpt>
  <wpt lat="32.6625329" lon="-115.4913256"><time>2026-01-01T00:02:33Z</time></wpt>
  <wpt lat="32.6624980" lon="-115.4913564"><time>2026-01-01T00:02:34Z</time></wpt>
  <wpt lat="32.6624632" lon="-115.4913872"><time>2026-01-01T00:02:35Z</time></wpt>
  <wpt lat="32.6624283" lon="-115.4914180"><time>2026-01-01T00:02:36Z</time></wpt>
  <wpt lat="32.6623935" lon="-115.4914488"><time>2026-01-01T00:02:37Z</time></wpt>
  <wpt lat="32.6623586" lon="-115.4914796"><time>2026-01-01T00:02:38Z</time></wpt>
  <wpt lat="32.6623238" lon="-115.4915103"><time>2026-01-01T00:02:39Z</time></wpt>
  <wpt lat="32.6622890" lon="-115.4915411"><time>2026-01-01T00:02:40Z</time></wpt>
  <wpt lat="32.6622541" lon="-115.4915719"><time>2026-01-01T00:02:41Z</time></wpt>
  <wpt lat="32.6622193" lon="-115.4916027"><time>2026-01-01T00:02:42Z</time></wpt>
  <wpt lat="32.6621844" lon="-115.4916335"><time>2026-01-01T00:02:43Z</time></wpt>
  <wpt lat="32.6621496" lon="-115.4916643"><time>2026-01-01T00:02:44Z</time></wpt>
  <wpt lat="32.6621147" lon="-115.4916951"><time>2026-01-01T00:02:45Z</time></wpt>
  <wpt lat="32.6620799" lon="-115.4917259"><time>2026-01-01T00:02:46Z</time></wpt>
  <wpt lat="32.6620450" lon="-115.4917567"><time>2026-01-01T00:02:47Z</time></wpt>
  <wpt lat="32.6620102" lon="-115.4917874"><time>2026-01-01T00:02:48Z</time></wpt>
  <wpt lat="32.6619753" lon="-115.4918182"><time>2026-01-01T00:02:49Z</time></wpt>
  <wpt lat="32.6619405" lon="-115.4918490"><time>2026-01-01T00:02:50Z</time></wpt>
  <wpt lat="32.6619056" lon="-115.4918798"><time>2026-01-01T00:02:51Z</time></wpt>
  <wpt lat="32.6618708" lon="-115.4919106"><time>2026-01-01T00:02:52Z</time></wpt>
  <wpt lat="32.6618645" lon="-115.4919631"><time>2026-01-01T00:02:53Z</time></wpt>
  <wpt lat="32.6618582" lon="-115.4920156"><time>2026-01-01T00:02:54Z</time></wpt>
  <wpt lat="32.6618519" lon="-115.4920681"><time>2026-01-01T00:02:55Z</time></wpt>
  <wpt lat="32.6618456" lon="-115.4921206"><time>2026-01-01T00:02:56Z</time></wpt>
  <wpt lat="32.6618393" lon="-115.4921731"><time>2026-01-01T00:02:57Z</time></wpt>
  <wpt lat="32.6618330" lon="-115.4922256"><time>2026-01-01T00:02:58Z</time></wpt>
  <wpt lat="32.6618267" lon="-115.4922781"><time>2026-01-01T00:02:59Z</time></wpt>
  <wpt lat="32.6618204" lon="-115.4923306"><time>2026-01-01T00:03:00Z</time></wpt>
  <wpt lat="32.6618141" lon="-115.4923831"><time>2026-01-01T00:03:01Z</time></wpt>
  <wpt lat="32.6618079" lon="-115.4924355"><time>2026-01-01T00:03:02Z</time></wpt>
  <wpt lat="32.6618016" lon="-115.4924880"><time>2026-01-01T00:03:03Z</time></wpt>
  <wpt lat="32.6617953" lon="-115.4925405"><time>2026-01-01T00:03:04Z</time></wpt>
  <wpt lat="32.6617890" lon="-115.4925930"><time>2026-01-01T00:03:05Z</time></wpt>
  <wpt lat="32.6617827" lon="-115.4926455"><time>2026-01-01T00:03:06Z</time></wpt>
  <wpt lat="32.6617764" lon="-115.4926980"><time>2026-01-01T00:03:07Z</time></wpt>
  <wpt lat="32.6617701" lon="-115.4927505"><time>2026-01-01T00:03:08Z</time></wpt>
  <wpt lat="32.6617638" lon="-115.4928030"><time>2026-01-01T00:03:09Z</time></wpt>
  <wpt lat="32.6617575" lon="-115.4928555"><time>2026-01-01T00:03:10Z</time></wpt>
  <wpt lat="32.6617512" lon="-115.4929080"><time>2026-01-01T00:03:11Z</time></wpt>
  <wpt lat="32.6617449" lon="-115.4929605"><time>2026-01-01T00:03:12Z</time></wpt>
  <wpt lat="32.6617386" lon="-115.4930130"><time>2026-01-01T00:03:13Z</time></wpt>
  <wpt lat="32.6617323" lon="-115.4930655"><time>2026-01-01T00:03:14Z</time></wpt>
  <wpt lat="32.6617260" lon="-115.4931180"><time>2026-01-01T00:03:15Z</time></wpt>
  <wpt lat="32.6617197" lon="-115.4931705"><time>2026-01-01T00:03:16Z</time></wpt>
  <wpt lat="32.6617134" lon="-115.4932230"><time>2026-01-01T00:03:17Z</time></wpt>
  <wpt lat="32.6617071" lon="-115.4932755"><time>2026-01-01T00:03:18Z</time></wpt>
  <wpt lat="32.6617008" lon="-115.4933280"><time>2026-01-01T00:03:19Z</time></wpt>
  <wpt lat="32.6616945" lon="-115.4933805"><time>2026-01-01T00:03:20Z</time></wpt>
  <wpt lat="32.6616882" lon="-115.4934330"><time>2026-01-01T00:03:21Z</time></wpt>
  <wpt lat="32.6616820" lon="-115.4934854"><time>2026-01-01T00:03:22Z</time></wpt>
  <wpt lat="32.6616757" lon="-115.4935379"><time>2026-01-01T00:03:23Z</time></wpt>
  <wpt lat="32.6616694" lon="-115.4935904"><time>2026-01-01T00:03:24Z</time></wpt>
  <wpt lat="32.6616631" lon="-115.4936429"><time>2026-01-01T00:03:25Z</time></wpt>
  <wpt lat="32.6616568" lon="-115.4936954"><time>2026-01-01T00:03:26Z</time></wpt>
  <wpt lat="32.6616505" lon="-115.4937479"><time>2026-01-01T00:03:27Z</time></wpt>
  <wpt lat="32.6616442" lon="-115.4938004"><time>2026-01-01T00:03:28Z</time></wpt>
  <wpt lat="32.6616379" lon="-115.4938529"><time>2026-01-01T00:03:29Z</time></wpt>
  <wpt lat="32.6616316" lon="-115.4939054"><time>2026-01-01T00:03:30Z</time></wpt>
  <wpt lat="32.6616253" lon="-115.4939579"><time>2026-01-01T00:03:31Z</time></wpt>
  <wpt lat="32.6616690" lon="-115.4939502"><time>2026-01-01T00:03:32Z</time></wpt>
  <wpt lat="32.6617126" lon="-115.4939424"><time>2026-01-01T00:03:33Z</time></wpt>
  <wpt lat="32.6617563" lon="-115.4939347"><time>2026-01-01T00:03:34Z</time></wpt>
  <wpt lat="32.6617999" lon="-115.4939270"><time>2026-01-01T00:03:35Z</time></wpt>
  <wpt lat="32.6618436" lon="-115.4939193"><time>2026-01-01T00:03:36Z</time></wpt>
  <wpt lat="32.6618873" lon="-115.4939115"><time>2026-01-01T00:03:37Z</time></wpt>
  <wpt lat="32.6619309" lon="-115.4939038"><time>2026-01-01T00:03:38Z</time></wpt>
  <wpt lat="32.6619746" lon="-115.4938961"><time>2026-01-01T00:03:39Z</time></wpt>
  <wpt lat="32.6620183" lon="-115.4938884"><time>2026-01-01T00:03:40Z</time></wpt>
  <wpt lat="32.6620619" lon="-115.4938806"><time>2026-01-01T00:03:41Z</time></wpt>
  <wpt lat="32.6621056" lon="-115.4938729"><time>2026-01-01T00:03:42Z</time></wpt>
  <wpt lat="32.6621492" lon="-115.4938652"><time>2026-01-01T00:03:43Z</time></wpt>
  <wpt lat="32.6621929" lon="-115.4938575"><time>2026-01-01T00:03:44Z</time></wpt>
  <wpt lat="32.6622366" lon="-115.4938497"><time>2026-01-01T00:03:45Z</time></wpt>
  <wpt lat="32.6622802" lon="-115.4938420"><time>2026-01-01T00:03:46Z</time></wpt>
  <wpt lat="32.6623239" lon="-115.4938343"><time>2026-01-01T00:03:47Z</time></wpt>
  <wpt lat="32.6623675" lon="-115.4938265"><time>2026-01-01T00:03:48Z</time></wpt>
  <wpt lat="32.6624112" lon="-115.4938188"><time>2026-01-01T00:03:49Z</time></wpt>
  <wpt lat="32.6624549" lon="-115.4938111"><time>2026-01-01T00:03:50Z</time></wpt>
  <wpt lat="32.6624985" lon="-115.4938034"><time>2026-01-01T00:03:51Z</time></wpt>
  <wpt lat="32.6625422" lon="-115.4937956"><time>2026-01-01T00:03:52Z</time></wpt>
  <wpt lat="32.6625859" lon="-115.4937879"><time>2026-01-01T00:03:53Z</time></wpt>
  <wpt lat="32.6626295" lon="-115.4937802"><time>2026-01-01T00:03:54Z</time></wpt>
  <wpt lat="32.6626732" lon="-115.4937725"><time>2026-01-01T00:03:55Z</time></wpt>
  <wpt lat="32.6627168" lon="-115.4937647"><time>2026-01-01T00:03:56Z</time></wpt>
  <wpt lat="32.6627605" lon="-115.4937570"><time>2026-01-01T00:03:57Z</time></wpt>
  <wpt lat="32.6628042" lon="-115.4937493"><time>2026-01-01T00:03:58Z</time></wpt>
  <wpt lat="32.6628478" lon="-115.4937416"><time>2026-01-01T00:03:59Z</time></wpt>
  <wpt lat="32.6628915" lon="-115.4937338"><time>2026-01-01T00:04:00Z</time></wpt>
  <wpt lat="32.6629352" lon="-115.4937261"><time>2026-01-01T00:04:01Z</time></wpt>
  <wpt lat="32.6629788" lon="-115.4937184"><time>2026-01-01T00:04:02Z</time></wpt>
  <wpt lat="32.6630225" lon="-115.4937107"><time>2026-01-01T00:04:03Z</time></wpt>
  <wpt lat="32.6630661" lon="-115.4937029"><time>2026-01-01T00:04:04Z</time></wpt>
  <wpt lat="32.6631098" lon="-115.4936952"><time>2026-01-01T00:04:05Z</time></wpt>
  <wpt lat="32.6631456" lon="-115.4936635"><time>2026-01-01T00:04:06Z</time></wpt>
  <wpt lat="32.6631814" lon="-115.4936318"><time>2026-01-01T00:04:07Z</time></wpt>
  <wpt lat="32.6632172" lon="-115.4936001"><time>2026-01-01T00:04:08Z</time></wpt>
  <wpt lat="32.6632531" lon="-115.4935684"><time>2026-01-01T00:04:09Z</time></wpt>
  <wpt lat="32.6632889" lon="-115.4935367"><time>2026-01-01T00:04:10Z</time></wpt>
  <wpt lat="32.6633247" lon="-115.4935050"><time>2026-01-01T00:04:11Z</time></wpt>
  <wpt lat="32.6633605" lon="-115.4934733"><time>2026-01-01T00:04:12Z</time></wpt>
  <wpt lat="32.6633963" lon="-115.4934416"><time>2026-01-01T00:04:13Z</time></wpt>
  <wpt lat="32.6634321" lon="-115.4934099"><time>2026-01-01T00:04:14Z</time></wpt>
  <wpt lat="32.6634679" lon="-115.4933782"><time>2026-01-01T00:04:15Z</time></wpt>
  <wpt lat="32.6635038" lon="-115.4933465"><time>2026-01-01T00:04:16Z</time></wpt>
  <wpt lat="32.6635396" lon="-115.4933147"><time>2026-01-01T00:04:17Z</time></wpt>
  <wpt lat="32.6635754" lon="-115.4932830"><time>2026-01-01T00:04:18Z</time></wpt>
  <wpt lat="32.6636112" lon="-115.4932513"><time>2026-01-01T00:04:19Z</time></wpt>
  <wpt lat="32.6636470" lon="-115.4932196"><time>2026-01-01T00:04:20Z</time></wpt>
  <wpt lat="32.6636828" lon="-115.4931879"><time>2026-01-01T00:04:21Z</time></wpt>
  <wpt lat="32.6637186" lon="-115.4931562"><time>2026-01-01T00:04:22Z</time></wpt>
  <wpt lat="32.6637545" lon="-115.4931245"><time>2026-01-01T00:04:23Z</time></wpt>
  <wpt lat="32.6637903" lon="-115.4930928"><time>2026-01-01T00:04:24Z</time></wpt>
  <wpt lat="32.6638261" lon="-115.4930611"><time>2026-01-01T00:04:25Z</time></wpt>
  <wpt lat="32.6638619" lon="-115.4930294"><time>2026-01-01T00:04:26Z</time></wpt>
  <wpt lat="32.6638977" lon="-115.4929977"><time>2026-01-01T00:04:27Z</time></wpt>
  <wpt lat="32.6639335" lon="-115.4929660"><time>2026-01-01T00:04:28Z</time></wpt>
  <wpt lat="32.6639694" lon="-115.4929343"><time>2026-01-01T00:04:29Z</time></wpt>
  <wpt lat="32.6640052" lon="-115.4929026"><time>2026-01-01T00:04:30Z</time></wpt>
  <wpt lat="32.6640410" lon="-115.4928709"><time>2026-01-01T00:04:31Z</time></wpt>
  <wpt lat="32.6640768" lon="-115.4928392"><time>2026-01-01T00:04:32Z</time></wpt>
  <wpt lat="32.6641126" lon="-115.4928075"><time>2026-01-01T00:04:33Z</time></wpt>
  <wpt lat="32.6641484" lon="-115.4927758"><time>2026-01-01T00:04:34Z</time></wpt>
  <wpt lat="32.6641842" lon="-115.4927441"><time>2026-01-01T00:04:35Z</time></wpt>
  <wpt lat="32.6642201" lon="-115.4927124"><time>2026-01-01T00:04:36Z</time></wpt>
  <wpt lat="32.6642559" lon="-115.4926807"><time>2026-01-01T00:04:37Z</time></wpt>
  <wpt lat="32.6642917" lon="-115.4926490"><time>2026-01-01T00:04:38Z</time></wpt>
  <wpt lat="32.6643275" lon="-115.4926173"><time>2026-01-01T00:04:39Z</time></wpt>
  <wpt lat="32.6643633" lon="-115.4925856"><time>2026-01-01T00:04:40Z</time></wpt>
  <wpt lat="32.6643991" lon="-115.4925539"><time>2026-01-01T00:04:41Z</time></wpt>
  <wpt lat="32.6644349" lon="-115.4925221"><time>2026-01-01T00:04:42Z</time></wpt>
  <wpt lat="32.6644708" lon="-115.4924904"><time>2026-01-01T00:04:43Z</time></wpt>
  <wpt lat="32.6645066" lon="-115.4924587"><time>2026-01-01T00:04:44Z</time></wpt>
  <wpt lat="32.6645424" lon="-115.4924270"><time>2026-01-01T00:04:45Z</time></wpt>
  <wpt lat="32.6645782" lon="-115.4923953"><time>2026-01-01T00:04:46Z</time></wpt>
  <wpt lat="32.6646140" lon="-115.4923636"><time>2026-01-01T00:04:47Z</time></wpt>
  <wpt lat="32.6646498" lon="-115.4923319"><time>2026-01-01T00:04:48Z</time></wpt>
  <wpt lat="32.6646856" lon="-115.4923002"><time>2026-01-01T00:04:49Z</time></wpt>
  <wpt lat="32.6647215" lon="-115.4922685"><time>2026-01-01T00:04:50Z</time></wpt>
  <wpt lat="32.6647573" lon="-115.4922368"><time>2026-01-01T00:04:51Z</time></wpt>
  <wpt lat="32.6647931" lon="-115.4922051"><time>2026-01-01T00:04:52Z</time></wpt>
  <wpt lat="32.6648289" lon="-115.4921734"><time>2026-01-01T00:04:53Z</time></wpt>
  <wpt lat="32.6648272" lon="-115.4921203"><time>2026-01-01T00:04:54Z</time></wpt>
  <wpt lat="32.6648256" lon="-115.4920671"><time>2026-01-01T00:04:55Z</time></wpt>
  <wpt lat="32.6648239" lon="-115.4920140"><time>2026-01-01T00:04:56Z</time></wpt>
  <wpt lat="32.6648222" lon="-115.4919608"><time>2026-01-01T00:04:57Z</time></wpt>
  <wpt lat="32.6648205" lon="-115.4919077"><time>2026-01-01T00:04:58Z</time></wpt>
  <wpt lat="32.6648189" lon="-115.4918545"><time>2026-01-01T00:04:59Z</time></wpt>
  <wpt lat="32.6648172" lon="-115.4918014"><time>2026-01-01T00:05:00Z</time></wpt>
  <wpt lat="32.6648155" lon="-115.4917482"><time>2026-01-01T00:05:01Z</time></wpt>
  <wpt lat="32.6648139" lon="-115.4916951"><time>2026-01-01T00:05:02Z</time></wpt>
  <wpt lat="32.6648122" lon="-115.4916419"><time>2026-01-01T00:05:03Z</time></wpt>
  <wpt lat="32.6648105" lon="-115.4915888"><time>2026-01-01T00:05:04Z</time></wpt>
  <wpt lat="32.6648088" lon="-115.4915357"><time>2026-01-01T00:05:05Z</time></wpt>
  <wpt lat="32.6648072" lon="-115.4914825"><time>2026-01-01T00:05:06Z</time></wpt>
  <wpt lat="32.6648055" lon="-115.4914294"><time>2026-01-01T00:05:07Z</time></wpt>
  <wpt lat="32.6648038" lon="-115.4913762"><time>2026-01-01T00:05:08Z</time></wpt>
  <wpt lat="32.6648022" lon="-115.4913231"><time>2026-01-01T00:05:09Z</time></wpt>
  <wpt lat="32.6648005" lon="-115.4912699"><time>2026-01-01T00:05:10Z</time></wpt>
  <wpt lat="32.6647988" lon="-115.4912168"><time>2026-01-01T00:05:11Z</time></wpt>
  <wpt lat="32.6647972" lon="-115.4911636"><time>2026-01-01T00:05:12Z</time></wpt>
  <wpt lat="32.6647955" lon="-115.4911105"><time>2026-01-01T00:05:13Z</time></wpt>
  <wpt lat="32.6647938" lon="-115.4910574"><time>2026-01-01T00:05:14Z</time></wpt>
  <wpt lat="32.6647921" lon="-115.4910042"><time>2026-01-01T00:05:15Z</time></wpt>
  <wpt lat="32.6647905" lon="-115.4909511"><time>2026-01-01T00:05:16Z</time></wpt>
  <wpt lat="32.6647888" lon="-115.4908979"><time>2026-01-01T00:05:17Z</time></wpt>
  <wpt lat="32.6647871" lon="-115.4908448"><time>2026-01-01T00:05:18Z</time></wpt>
  <wpt lat="32.6647855" lon="-115.4907916"><time>2026-01-01T00:05:19Z</time></wpt>
  <wpt lat="32.6647838" lon="-115.4907385"><time>2026-01-01T00:05:20Z</time></wpt>
  <wpt lat="32.6647821" lon="-115.4906853"><time>2026-01-01T00:05:21Z</time></wpt>
  <wpt lat="32.6647804" lon="-115.4906322"><time>2026-01-01T00:05:22Z</time></wpt>
  <wpt lat="32.6647788" lon="-115.4905790"><time>2026-01-01T00:05:23Z</time></wpt>
  <wpt lat="32.6647771" lon="-115.4905259"><time>2026-01-01T00:05:24Z</time></wpt>
  <wpt lat="32.6647754" lon="-115.4904728"><time>2026-01-01T00:05:25Z</time></wpt>
  <wpt lat="32.6647738" lon="-115.4904196"><time>2026-01-01T00:05:26Z</time></wpt>
  <wpt lat="32.6647721" lon="-115.4903665"><time>2026-01-01T00:05:27Z</time></wpt>
  <wpt lat="32.6647704" lon="-115.4903133"><time>2026-01-01T00:05:28Z</time></wpt>
  <wpt lat="32.6647687" lon="-115.4902602"><time>2026-01-01T00:05:29Z</time></wpt>
  <wpt lat="32.6647671" lon="-115.4902070"><time>2026-01-01T00:05:30Z</time></wpt>
  <wpt lat="32.6647654" lon="-115.4901539"><time>2026-01-01T00:05:31Z</time></wpt>
  <wpt lat="32.6647637" lon="-115.4901007"><time>2026-01-01T00:05:32Z</time></wpt>
  <wpt lat="32.6647621" lon="-115.4900476"><time>2026-01-01T00:05:33Z</time></wpt>
  <wpt lat="32.6647604" lon="-115.4899944"><time>2026-01-01T00:05:34Z</time></wpt>
  <wpt lat="32.6647587" lon="-115.4899413"><time>2026-01-01T00:05:35Z</time></wpt>
  <wpt lat="32.6647570" lon="-115.4898882"><time>2026-01-01T00:05:36Z</time></wpt>
  <wpt lat="32.6647554" lon="-115.4898350"><time>2026-01-01T00:05:37Z</time></wpt>
  <wpt lat="32.6647537" lon="-115.4897819"><time>2026-01-01T00:05:38Z</time></wpt>
  <wpt lat="32.6647520" lon="-115.4897287"><time>2026-01-01T00:05:39Z</time></wpt>
  <wpt lat="32.6647504" lon="-115.4896756"><time>2026-01-01T00:05:40Z</time></wpt>
  <wpt lat="32.6647487" lon="-115.4896224"><time>2026-01-01T00:05:41Z</time></wpt>
  <wpt lat="32.6647470" lon="-115.4895693"><time>2026-01-01T00:05:42Z</time></wpt>
  <wpt lat="32.6647454" lon="-115.4895161"><time>2026-01-01T00:05:43Z</time></wpt>
  <wpt lat="32.6647437" lon="-115.4894630"><time>2026-01-01T00:05:44Z</time></wpt>
  <wpt lat="32.6647420" lon="-115.4894099"><time>2026-01-01T00:05:45Z</time></wpt>
  <wpt lat="32.6647403" lon="-115.4893567"><time>2026-01-01T00:05:46Z</time></wpt>
  <wpt lat="32.6647387" lon="-115.4893036"><time>2026-01-01T00:05:47Z</time></wpt>
  <wpt lat="32.6647370" lon="-115.4892504"><time>2026-01-01T00:05:48Z</time></wpt>
  <wpt lat="32.6647353" lon="-115.4891973"><time>2026-01-01T00:05:49Z</time></wpt>
  <wpt lat="32.6647337" lon="-115.4891441"><time>2026-01-01T00:05:50Z</time></wpt>
  <wpt lat="32.6647320" lon="-115.4890910"><time>2026-01-01T00:05:51Z</time></wpt>
  <wpt lat="32.6647303" lon="-115.4890378"><time>2026-01-01T00:05:52Z</time></wpt>
  <wpt lat="32.6647286" lon="-115.4889847"><time>2026-01-01T00:05:53Z</time></wpt>
  <wpt lat="32.6647270" lon="-115.4889315"><time>2026-01-01T00:05:54Z</time></wpt>
  <wpt lat="32.6647253" lon="-115.4888784"><time>2026-01-01T00:05:55Z</time></wpt>
  <wpt lat="32.6647236" lon="-115.4888253"><time>2026-01-01T00:05:56Z</time></wpt>
  <wpt lat="32.6647220" lon="-115.4887721"><time>2026-01-01T00:05:57Z</time></wpt>
  <wpt lat="32.6647203" lon="-115.4887190"><time>2026-01-01T00:05:58Z</time></wpt>
  <wpt lat="32.6647186" lon="-115.4886658"><time>2026-01-01T00:05:59Z</time></wpt>
  <wpt lat="32.6647169" lon="-115.4886127"><time>2026-01-01T00:06:00Z</time></wpt>
  <wpt lat="32.6647153" lon="-115.4885595"><time>2026-01-01T00:06:01Z</time></wpt>
  <wpt lat="32.6647136" lon="-115.4885064"><time>2026-01-01T00:06:02Z</time></wpt>
  <wpt lat="32.6647119" lon="-115.4884532"><time>2026-01-01T00:06:03Z</time></wpt>
  <wpt lat="32.6647103" lon="-115.4884001"><time>2026-01-01T00:06:04Z</time></wpt>
  <wpt lat="32.6647086" lon="-115.4883469"><time>2026-01-01T00:06:05Z</time></wpt>
  <wpt lat="32.6647069" lon="-115.4882938"><time>2026-01-01T00:06:06Z</time></wpt>
  <wpt lat="32.6647052" lon="-115.4882407"><time>2026-01-01T00:06:07Z</time></wpt>
  <wpt lat="32.6647036" lon="-115.4881875"><time>2026-01-01T00:06:08Z</time></wpt>
  <wpt lat="32.6647019" lon="-115.4881344"><time>2026-01-01T00:06:09Z</time></wpt>
  <wpt lat="32.6647002" lon="-115.4880812"><time>2026-01-01T00:06:10Z</time></wpt>
  <wpt lat="32.6646986" lon="-115.4880281"><time>2026-01-01T00:06:11Z</time></wpt>
  <wpt lat="32.6646969" lon="-115.4879749"><time>2026-01-01T00:06:12Z</time></wpt>
  <wpt lat="32.6646952" lon="-115.4879218"><time>2026-01-01T00:06:13Z</time></wpt>
  <wpt lat="32.6646936" lon="-115.4878686"><time>2026-01-01T00:06:14Z</time></wpt>
  <wpt lat="32.6646919" lon="-115.4878155"><time>2026-01-01T00:06:15Z</time></wpt>
  <wpt lat="32.6646902" lon="-115.4877624"><time>2026-01-01T00:06:16Z</time></wpt>
  <wpt lat="32.6646885" lon="-115.4877092"><time>2026-01-01T00:06:17Z</time></wpt>
  <wpt lat="32.6646869" lon="-115.4876561"><time>2026-01-01T00:06:18Z</time></wpt>
  <wpt lat="32.6646852" lon="-115.4876029"><time>2026-01-01T00:06:19Z</time></wpt>
  <wpt lat="32.6646835" lon="-115.4875498"><time>2026-01-01T00:06:20Z</time></wpt>
  <wpt lat="32.6646819" lon="-115.4874966"><time>2026-01-01T00:06:21Z</time></wpt>
  <wpt lat="32.6646802" lon="-115.4874435"><time>2026-01-01T00:06:22Z</time></wpt>
  <wpt lat="32.6646785" lon="-115.4873903"><time>2026-01-01T00:06:23Z</time></wpt>
  <wpt lat="32.6646768" lon="-115.4873372"><time>2026-01-01T00:06:24Z</time></wpt>
  <wpt lat="32.6646752" lon="-115.4872840"><time>2026-01-01T00:06:25Z</time></wpt>
  <wpt lat="32.6646735" lon="-115.4872309"><time>2026-01-01T00:06:26Z</time></wpt>
  <wpt lat="32.6646286" lon="-115.4872291"><time>2026-01-01T00:06:27Z</time></wpt>
  <wpt lat="32.6645837" lon="-115.4872274"><time>2026-01-01T00:06:28Z</time></wpt>
  <wpt lat="32.6645388" lon="-115.4872256"><time>2026-01-01T00:06:29Z</time></wpt>
  <wpt lat="32.6644939" lon="-115.4872238"><time>2026-01-01T00:06:30Z</time></wpt>
  <wpt lat="32.6644490" lon="-115.4872220"><time>2026-01-01T00:06:31Z</time></wpt>
  <wpt lat="32.6644041" lon="-115.4872203"><time>2026-01-01T00:06:32Z</time></wpt>
  <wpt lat="32.6643593" lon="-115.4872185"><time>2026-01-01T00:06:33Z</time></wpt>
  <wpt lat="32.6643144" lon="-115.4872167"><time>2026-01-01T00:06:34Z</time></wpt>
  <wpt lat="32.6642695" lon="-115.4872149"><time>2026-01-01T00:06:35Z</time></wpt>
  <wpt lat="32.6642246" lon="-115.4872132"><time>2026-01-01T00:06:36Z</time></wpt>
  <wpt lat="32.6641797" lon="-115.4872114"><time>2026-01-01T00:06:37Z</time></wpt>
  <wpt lat="32.6641348" lon="-115.4872096"><time>2026-01-01T00:06:38Z</time></wpt>
  <wpt lat="32.6640899" lon="-115.4872078"><time>2026-01-01T00:06:39Z</time></wpt>
  <wpt lat="32.6640450" lon="-115.4872061"><time>2026-01-01T00:06:40Z</time></wpt>
  <wpt lat="32.6640001" lon="-115.4872043"><time>2026-01-01T00:06:41Z</time></wpt>
  <wpt lat="32.6639552" lon="-115.4872025"><time>2026-01-01T00:06:42Z</time></wpt>
  <wpt lat="32.6639103" lon="-115.4872007"><time>2026-01-01T00:06:43Z</time></wpt>
  <wpt lat="32.6638654" lon="-115.4871990"><time>2026-01-01T00:06:44Z</time></wpt>
  <wpt lat="32.6638206" lon="-115.4871972"><time>2026-01-01T00:06:45Z</time></wpt>
  <wpt lat="32.6637757" lon="-115.4871954"><time>2026-01-01T00:06:46Z</time></wpt>
  <wpt lat="32.6637308" lon="-115.4871936"><time>2026-01-01T00:06:47Z</time></wpt>
  <wpt lat="32.6636859" lon="-115.4871919"><time>2026-01-01T00:06:48Z</time></wpt>
  <wpt lat="32.6636410" lon="-115.4871901"><time>2026-01-01T00:06:49Z</time></wpt>
  <wpt lat="32.6635961" lon="-115.4871883"><time>2026-01-01T00:06:50Z</time></wpt>
  <wpt lat="32.6635512" lon="-115.4871865"><time>2026-01-01T00:06:51Z</time></wpt>
  <wpt lat="32.6635063" lon="-115.4871848"><time>2026-01-01T00:06:52Z</time></wpt>
  <wpt lat="32.6634614" lon="-115.4871830"><time>2026-01-01T00:06:53Z</time></wpt>
  <wpt lat="32.6634165" lon="-115.4871812"><time>2026-01-01T00:06:54Z</time></wpt>
  <wpt lat="32.6633716" lon="-115.4871794"><time>2026-01-01T00:06:55Z</time></wpt>
  <wpt lat="32.6633267" lon="-115.4871777"><time>2026-01-01T00:06:56Z</time></wpt>
  <wpt lat="32.6632818" lon="-115.4871759"><time>2026-01-01T00:06:57Z</time></wpt>
  <wpt lat="32.6632370" lon="-115.4871741"><time>2026-01-01T00:06:58Z</time></wpt>
  <wpt lat="32.6631921" lon="-115.4871723"><time>2026-01-01T00:06:59Z</time></wpt>
  <wpt lat="32.6631472" lon="-115.4871706"><time>2026-01-01T00:07:00Z</time></wpt>
  <wpt lat="32.6631023" lon="-115.4871688"><time>2026-01-01T00:07:01Z</time></wpt>
  <wpt lat="32.6630574" lon="-115.4871670"><time>2026-01-01T00:07:02Z</time></wpt>
  <wpt lat="32.6630125" lon="-115.4871652"><time>2026-01-01T00:07:03Z</time></wpt>
  <wpt lat="32.6629676" lon="-115.4871635"><time>2026-01-01T00:07:04Z</time></wpt>
  <wpt lat="32.6629227" lon="-115.4871617"><time>2026-01-01T00:07:05Z</time></wpt>
  <wpt lat="32.6628778" lon="-115.4871599"><time>2026-01-01T00:07:06Z</time></wpt>
  <wpt lat="32.6628329" lon="-115.4871581"><time>2026-01-01T00:07:07Z</time></wpt>
  <wpt lat="32.6627880" lon="-115.4871564"><time>2026-01-01T00:07:08Z</time></wpt>
  <wpt lat="32.6627431" lon="-115.4871546"><time>2026-01-01T00:07:09Z</time></wpt>
  <wpt lat="32.6626982" lon="-115.4871528"><time>2026-01-01T00:07:10Z</time></wpt>
  <wpt lat="32.6626534" lon="-115.4871510"><time>2026-01-01T00:07:11Z</time></wpt>
  <wpt lat="32.6626085" lon="-115.4871493"><time>2026-01-01T00:07:12Z</time></wpt>
  <wpt lat="32.6625636" lon="-115.4871475"><time>2026-01-01T00:07:13Z</time></wpt>
  <wpt lat="32.6625187" lon="-115.4871457"><time>2026-01-01T00:07:14Z</time></wpt>
  <wpt lat="32.6624738" lon="-115.4871439"><time>2026-01-01T00:07:15Z</time></wpt>
  <wpt lat="32.6624289" lon="-115.4871422"><time>2026-01-01T00:07:16Z</time></wpt>
  <wpt lat="32.6623840" lon="-115.4871404"><time>2026-01-01T00:07:17Z</time></wpt>
  <wpt lat="32.6623391" lon="-115.4871386"><time>2026-01-01T00:07:18Z</time></wpt>
  <wpt lat="32.6622942" lon="-115.4871368"><time>2026-01-01T00:07:19Z</time></wpt>
  <wpt lat="32.6622493" lon="-115.4871351"><time>2026-01-01T00:07:20Z</time></wpt>
  <wpt lat="32.6622044" lon="-115.4871333"><time>2026-01-01T00:07:21Z</time></wpt>
  <wpt lat="32.6621595" lon="-115.4871315"><time>2026-01-01T00:07:22Z</time></wpt>
  <wpt lat="32.6621147" lon="-115.4871297"><time>2026-01-01T00:07:23Z</time></wpt>
  <wpt lat="32.6620698" lon="-115.4871280"><time>2026-01-01T00:07:24Z</time></wpt>
  <wpt lat="32.6620249" lon="-115.4871262"><time>2026-01-01T00:07:25Z</time></wpt>
  <wpt lat="32.6619800" lon="-115.4871244"><time>2026-01-01T00:07:26Z</time></wpt>
  <wpt lat="32.6619351" lon="-115.4871226"><time>2026-01-01T00:07:27Z</time></wpt>
  <wpt lat="32.6618902" lon="-115.4871209"><time>2026-01-01T00:07:28Z</time></wpt>
  <wpt lat="32.6618453" lon="-115.4871191"><time>2026-01-01T00:07:29Z</time></wpt>
  <wpt lat="32.6618004" lon="-115.4871173"><time>2026-01-01T00:07:30Z</time></wpt>
  <wpt lat="32.6617555" lon="-115.4871155"><time>2026-01-01T00:07:31Z</time></wpt>
  <wpt lat="32.6617106" lon="-115.4871138"><time>2026-01-01T00:07:32Z</time></wpt>
  <wpt lat="32.6616657" lon="-115.4871120"><time>2026-01-01T00:07:33Z</time></wpt>
  <wpt lat="32.6616208" lon="-115.4871102"><time>2026-01-01T00:07:34Z</time></wpt>
  <wpt lat="32.6615759" lon="-115.4871084"><time>2026-01-01T00:07:35Z</time></wpt>
  <wpt lat="32.6615311" lon="-115.4871067"><time>2026-01-01T00:07:36Z</time></wpt>
  <wpt lat="32.6614862" lon="-115.4871049"><time>2026-01-01T00:07:37Z</time></wpt>
  <wpt lat="32.6614413" lon="-115.4871031"><time>2026-01-01T00:07:38Z</time></wpt>
  <wpt lat="32.6613964" lon="-115.4871013"><time>2026-01-01T00:07:39Z</time></wpt>
  <wpt lat="32.6613515" lon="-115.4870996"><time>2026-01-01T00:07:40Z</time></wpt>
  <wpt lat="32.6613066" lon="-115.4870978"><time>2026-01-01T00:07:41Z</time></wpt>
  <wpt lat="32.6612617" lon="-115.4870960"><time>2026-01-01T00:07:42Z</time></wpt>
  <wpt lat="32.6612168" lon="-115.4870942"><time>2026-01-01T00:07:43Z</time></wpt>
  <wpt lat="32.6611719" lon="-115.4870925"><time>2026-01-01T00:07:44Z</time></wpt>
  <wpt lat="32.6611270" lon="-115.4870907"><time>2026-01-01T00:07:45Z</time></wpt>
  <wpt lat="32.6610821" lon="-115.4870889"><time>2026-01-01T00:07:46Z</time></wpt>
  <wpt lat="32.6610372" lon="-115.4870871"><time>2026-01-01T00:07:47Z</time></wpt>
  <wpt lat="32.6609923" lon="-115.4870854"><time>2026-01-01T00:07:48Z</time></wpt>
  <wpt lat="32.6609475" lon="-115.4870836"><time>2026-01-01T00:07:49Z</time></wpt>
  <wpt lat="32.6609026" lon="-115.4870818"><time>2026-01-01T00:07:50Z</time></wpt>
  <wpt lat="32.6608577" lon="-115.4870800"><time>2026-01-01T00:07:51Z</time></wpt>
  <wpt lat="32.6608128" lon="-115.4870783"><time>2026-01-01T00:07:52Z</time></wpt>
  <wpt lat="32.6607679" lon="-115.4870765"><time>2026-01-01T00:07:53Z</time></wpt>
  <wpt lat="32.6607230" lon="-115.4870747"><time>2026-01-01T00:07:54Z</time></wpt>
  <wpt lat="32.6606781" lon="-115.4870729"><time>2026-01-01T00:07:55Z</time></wpt>
  <wpt lat="32.6606332" lon="-115.4870712"><time>2026-01-01T00:07:56Z</time></wpt>
  <wpt lat="32.6605883" lon="-115.4870694"><time>2026-01-01T00:07:57Z</time></wpt>
  <wpt lat="32.6605434" lon="-115.4870676"><time>2026-01-01T00:07:58Z</time></wpt>
  <wpt lat="32.6604985" lon="-115.4870658"><time>2026-01-01T00:07:59Z</time></wpt>
  <wpt lat="32.6604536" lon="-115.4870641"><time>2026-01-01T00:08:00Z</time></wpt>
  <wpt lat="32.6604088" lon="-115.4870623"><time>2026-01-01T00:08:01Z</time></wpt>
  <wpt lat="32.6603639" lon="-115.4870605"><time>2026-01-01T00:08:02Z</time></wpt>
  <wpt lat="32.6603190" lon="-115.4870587"><time>2026-01-01T00:08:03Z</time></wpt>
  <wpt lat="32.6602741" lon="-115.4870570"><time>2026-01-01T00:08:04Z</time></wpt>
  <wpt lat="32.6602292" lon="-115.4870552"><time>2026-01-01T00:08:05Z</time></wpt>
  <wpt lat="32.6601843" lon="-115.4870534"><time>2026-01-01T00:08:06Z</time></wpt>
  <wpt lat="32.6601394" lon="-115.4870516"><time>2026-01-01T00:08:07Z</time></wpt>
  <wpt lat="32.6600945" lon="-115.4870499"><time>2026-01-01T00:08:08Z</time></wpt>
  <wpt lat="32.6600496" lon="-115.4870481"><time>2026-01-01T00:08:09Z</time></wpt>
  <wpt lat="32.6600047" lon="-115.4870463"><time>2026-01-01T00:08:10Z</time></wpt>
  <wpt lat="32.6599598" lon="-115.4870445"><time>2026-01-01T00:08:11Z</time></wpt>
  <wpt lat="32.6599149" lon="-115.4870428"><time>2026-01-01T00:08:12Z</time></wpt>
  <wpt lat="32.6598700" lon="-115.4870410"><time>2026-01-01T00:08:13Z</time></wpt>
  <wpt lat="32.6598252" lon="-115.4870392"><time>2026-01-01T00:08:14Z</time></wpt>
  <wpt lat="32.6597803" lon="-115.4870374"><time>2026-01-01T00:08:15Z</time></wpt>
  <wpt lat="32.6597354" lon="-115.4870357"><time>2026-01-01T00:08:16Z</time></wpt>
  <wpt lat="32.6596905" lon="-115.4870339"><time>2026-01-01T00:08:17Z</time></wpt>
  <wpt lat="32.6596456" lon="-115.4870321"><time>2026-01-01T00:08:18Z</time></wpt>
  <wpt lat="32.6596007" lon="-115.4870303"><time>2026-01-01T00:08:19Z</time></wpt>
  <wpt lat="32.6595558" lon="-115.4870286"><time>2026-01-01T00:08:20Z</time></wpt>
  <wpt lat="32.6595109" lon="-115.4870268"><time>2026-01-01T00:08:21Z</time></wpt>
  <wpt lat="32.6594660" lon="-115.4870250"><time>2026-01-01T00:08:22Z</time></wpt>
  <wpt lat="32.6594211" lon="-115.4870232"><time>2026-01-01T00:08:23Z</time></wpt>
  <wpt lat="32.6593762" lon="-115.4870215"><time>2026-01-01T00:08:24Z</time></wpt>
  <wpt lat="32.6593313" lon="-115.4870197"><time>2026-01-01T00:08:25Z</time></wpt>
  <wpt lat="32.6592864" lon="-115.4870179"><time>2026-01-01T00:08:26Z</time></wpt>
  <wpt lat="32.6592416" lon="-115.4870161"><time>2026-01-01T00:08:27Z</time></wpt>
  <wpt lat="32.6591967" lon="-115.4870144"><time>2026-01-01T00:08:28Z</time></wpt>
  <wpt lat="32.6591518" lon="-115.4870126"><time>2026-01-01T00:08:29Z</time></wpt>
  <wpt lat="32.6591069" lon="-115.4870108"><time>2026-01-01T00:08:30Z</time></wpt>
  <wpt lat="32.6590620" lon="-115.4870090"><time>2026-01-01T00:08:31Z</time></wpt>
  <wpt lat="32.6590171" lon="-115.4870073"><time>2026-01-01T00:08:32Z</time></wpt>
  <wpt lat="32.6589722" lon="-115.4870055"><time>2026-01-01T00:08:33Z</time></wpt>
  <wpt lat="32.6589273" lon="-115.4870037"><time>2026-01-01T00:08:34Z</time></wpt>
  <wpt lat="32.6588824" lon="-115.4870019"><time>2026-01-01T00:08:35Z</time></wpt>
  <wpt lat="32.6588375" lon="-115.4870002"><time>2026-01-01T00:08:36Z</time></wpt>
  <wpt lat="32.6587926" lon="-115.4869984"><time>2026-01-01T00:08:37Z</time></wpt>
  <wpt lat="32.6587477" lon="-115.4869966"><time>2026-01-01T00:08:38Z</time></wpt>
  <wpt lat="32.6587029" lon="-115.4869948"><time>2026-01-01T00:08:39Z</time></wpt>
  <wpt lat="32.6586580" lon="-115.4869931"><time>2026-01-01T00:08:40Z</time></wpt>
  <wpt lat="32.6586131" lon="-115.4869913"><time>2026-01-01T00:08:41Z</time></wpt>
  <wpt lat="32.6585682" lon="-115.4869895"><time>2026-01-01T00:08:42Z</time></wpt>
  <wpt lat="32.6585233" lon="-115.4869877"><time>2026-01-01T00:08:43Z</time></wpt>
  <wpt lat="32.6584784" lon="-115.4869860"><time>2026-01-01T00:08:44Z</time></wpt>
  <wpt lat="32.6584335" lon="-115.4869842"><time>2026-01-01T00:08:45Z</time></wpt>
  <wpt lat="32.6583912" lon="-115.4869825"><time>2026-01-01T00:08:46Z</time></wpt>
  <wpt lat="32.6583489" lon="-115.4869809"><time>2026-01-01T00:08:47Z</time></wpt>
  <wpt lat="32.6583066" lon="-115.4869792"><time>2026-01-01T00:08:48Z</time></wpt>
  <wpt lat="32.6582643" lon="-115.4869775"><time>2026-01-01T00:08:49Z</time></wpt>
  <wpt lat="32.6582220" lon="-115.4869758"><time>2026-01-01T00:08:50Z</time></wpt>
  <wpt lat="32.6581797" lon="-115.4869742"><time>2026-01-01T00:08:51Z</time></wpt>
  <wpt lat="32.6581374" lon="-115.4869725"><time>2026-01-01T00:08:52Z</time></wpt>
  <wpt lat="32.6580951" lon="-115.4869708"><time>2026-01-01T00:08:53Z</time></wpt>
  <wpt lat="32.6580528" lon="-115.4869691"><time>2026-01-01T00:08:54Z</time></wpt>
  <wpt lat="32.6580105" lon="-115.4869675"><time>2026-01-01T00:08:55Z</time></wpt>
  <wpt lat="32.6579682" lon="-115.4869658"><time>2026-01-01T00:08:56Z</time></wpt>
  <wpt lat="32.6579259" lon="-115.4869641"><time>2026-01-01T00:08:57Z</time></wpt>
  <wpt lat="32.6578836" lon="-115.4869625"><time>2026-01-01T00:08:58Z</time></wpt>
  <wpt lat="32.6578413" lon="-115.4869608"><time>2026-01-01T00:08:59Z</time></wpt>
  <wpt lat="32.6577990" lon="-115.4869591"><time>2026-01-01T00:09:00Z</time></wpt>
  <wpt lat="32.6577567" lon="-115.4869574"><time>2026-01-01T00:09:01Z</time></wpt>
  <wpt lat="32.6577144" lon="-115.4869558"><time>2026-01-01T00:09:02Z</time></wpt>
</gpx>
